{"type": "FeatureCollection", "features": [{"type": "Feature", "geometry": {"type": "Polygon", "coordinates": [[[55.6599794, 24.23030098693183], [55.67317330728999, 24.25592706868513], [55.68435856179815, 24.24906555847806], [55.691832309920194, 24.23879658276157], [55.6777106040736, 24.2266835], [55.68273147851443, 24.21803129802745], [55.668337969759364, 24.21900965137895], [55.66450302535657, 24.21665713359367], [55.6599794, 24.215831039204513], [55.65696364976228, 24.219999255729114], [55.65162083024063, 24.21900965137895], [55.63722732148557, 24.21803129802745], [55.656039132428084, 24.2266835], [55.65633906743769, 24.228067852315608], [55.6599794, 24.2266835], [55.6599794, 24.2266835], [55.6599794, 24.23030098693183]]]}, "properties": {"shop_id": "bd_al_ain", "brand": "Bedashing", "branch_name": "Al Ain", "segment": "women", "source": "isochrone_6min", "area_km2": 9.26}}, {"type": "Feature", "geometry": {"type": "Polygon", "coordinates": [[[55.2156092, 25.13575439332393], [55.21864645801711, 25.119829344270887], [55.21841526051696, 25.11570304954035], [55.219275494748665, 25.114529452315608], [55.21957756883993, 25.1131451], [55.23852354217915, 25.104492898027452], [55.23314707823101, 25.097157915372815], [55.22244303053849, 25.098105550390507], [55.2156092, 25.096866408806772], [55.206117768696544, 25.09225683665348], [55.202981927673676, 25.101634327068428], [55.20461031575401, 25.108992043053178], [55.19775154022033, 25.1131451], [55.199110873631014, 25.119374685420237], [55.207191018449116, 25.12081894862105], [55.21105331297434, 25.12317146640633], [55.2156092, 25.13575439332393]]]}, "properties": {"shop_id": "bd_al_barsha", "brand": "Bedashing", "branch_name": "Al Barsha", "segment": "women", "source": "isochrone_6min", "area_km2": 7.82}}, {"type": "Feature", "geometry": {"type": "Polygon", "coordinates": [[[53.7141144, 23.64433109119323], [53.7141144, 23.6280524], [53.7141144, 23.6280524], [53.72136139025551, 23.630821104631217], [53.738627167900496, 23.6280524], [53.73676124454847, 23.619400198027453], [53.72659426397383, 23.61654162706843], [53.72349503015693, 23.60716413665348], [53.7141144, 23.5963993893465], [53.70736034628701, 23.613012850390508], [53.70579449068411, 23.620378551378952], [53.703243914616735, 23.62389934305318], [53.6896016320995, 23.6280524], [53.6978086719251, 23.634281985420238], [53.70163453602617, 23.639563172931574], [53.70473376984307, 23.648940663346522], [53.7141144, 23.64433109119323]]]}, "properties": {"shop_id": "bd_al_dhafra", "brand": "Bedashing", "branch_name": "Al Dhafra", "segment": "women", "source": "isochrone_6min", "area_km2": 10.54}}, {"type": "Feature", "geometry": {"type": "Polygon", "coordinates": [[[54.7396974, 24.45374636079549], [54.74649442794862, 24.457933449609495], [54.74807024667151, 24.45056774862105], [54.74699050091439, 24.445662604631217], [54.751538393318526, 24.4428939], [54.75063705137159, 24.43874084305318], [54.75225667000727, 24.43138312706843], [54.7491377165953, 24.42200563665348], [54.7396974, 24.420284606676073], [54.73516604803425, 24.432867533593672], [54.727138129992724, 24.43138312706843], [54.72328792294261, 24.436664314579765], [54.721935910022204, 24.4428939], [54.72328792294261, 24.449123485420238], [54.727138129992724, 24.454404672931574], [54.732900372051375, 24.457933449609495], [54.7396974, 24.45374636079549]]]}, "properties": {"shop_id": "bd_al_falah", "brand": "Bedashing", "branch_name": "Al Falah", "segment": "women", "source": "isochrone_6min", "area_km2": 8.41}}, {"type": "Feature", "geometry": {"type": "Polygon", "coordinates": [[[55.4799114, 25.3192096], [55.481432603181965, 25.322551722135444], [55.48553303393844, 25.3243254990807], [55.49092892805909, 25.323362656946824], [55.497799329656495, 25.3192096], [55.4799114, 25.3192096], [55.4799114, 25.3192096], [55.4799114, 25.3192096], [55.4799114, 25.31559211306817], [55.47686899363607, 25.312525355729115], [55.47147894909234, 25.31153575137895], [55.4799114, 25.3192096], [55.4799114, 25.3192096], [55.4799114, 25.3192096], [55.4799114, 25.3192096], [55.4799114, 25.3192096], [55.4799114, 25.3192096]]]}, "properties": {"shop_id": "bd_al_jada", "brand": "Bedashing", "branch_name": "Al Jada", "segment": "women", "source": "isochrone_6min", "area_km2": 0.91}}, {"type": "Feature", "geometry": {"type": "Polygon", "coordinates": [[[54.4929556, 24.423904060795486], [54.49748588009662, 24.42307796640633], [54.498536177410415, 24.4181674990807], [54.50936119547591, 24.419281185420235], [54.50479379238952, 24.4130516], [54.515741149272095, 24.40439939802745], [54.51039490440754, 24.397064415372814], [54.49975102014493, 24.398012050390506], [54.4929556, 24.405816626136343], [54.488425319903385, 24.40302523359367], [54.490165311294795, 24.41049365045965], [54.48930991211647, 24.41166724768439], [54.48900953587016, 24.4130516], [54.47655000452409, 24.419281185420235], [54.48458473388438, 24.42072544862105], [54.489935413268924, 24.419735844270885], [54.4929556, 24.423904060795486]]]}, "properties": {"shop_id": "bd_al_maqta", "brand": "Bedashing", "branch_name": "Al Maqta", "segment": "women", "source": "isochrone_6min", "area_km2": 5.29}}, {"type": "Feature", "geometry": {"type": "Polygon", "coordinates": [[[56.3253503, 25.13653929119323], [56.334842283896315, 25.141148863346523], [56.33797830748841, 25.131771372931574], [56.34826597625631, 25.12891280197255], [56.36007554894196, 25.1202606], [56.34826597625631, 25.111608398027453], [56.33376897165894, 25.112586751378952], [56.32990645227023, 25.110234233593673], [56.3253503, 25.113025626136345], [56.320794147729764, 25.110234233593673], [56.31693162834105, 25.112586751378952], [56.31435077539697, 25.11610754305318], [56.30054655075574, 25.1202606], [56.308851013095456, 25.126490185420238], [56.31272229251158, 25.131771372931574], [56.31585831610368, 25.141148863346523], [56.3253503, 25.13653929119323]]]}, "properties": {"shop_id": "bd_al_taif_mall", "brand": "Bedashing", "branch_name": "Al Taif Mall", "segment": "women", "source": "isochrone_6min", "area_km2": 11.5}}, {"type": "Feature", "geometry": {"type": "Polygon", "coordinates": [[[54.6332474, 24.319972393323926], [54.640036611815006, 24.312402649609492], [54.65067077177158, 24.313350284627184], [54.64963800724161, 24.303592685420234], [54.65098846543638, 24.2973631], [54.65601213228002, 24.28871089802745], [54.645792227675535, 24.285852327068426], [54.63626482747334, 24.290678855729112], [54.6332474, 24.293745613068168], [54.62872125879, 24.28733673359367], [54.6276719210331, 24.2922472009193], [54.622320328505594, 24.293210043053175], [54.62930494101414, 24.2973631], [54.610482667719985, 24.306015301972547], [54.624884181549646, 24.305036948621048], [54.62872125879, 24.307389466406327], [54.6332474, 24.319972393323926]]]}, "properties": {"shop_id": "bd_baniyas", "brand": "Bedashing", "branch_name": "Baniyas", "segment": "women", "source": "isochrone_6min", "area_km2": 7.39}}, {"type": "Feature", "geometry": {"type": "Polygon", "coordinates": [[[55.2638147, 25.218263591193228], [55.27711238407269, 25.231228468685128], [55.27223901415627, 25.20965874862105], [55.27115263125404, 25.204753604631215], [55.28168536900023, 25.2019849], [55.27482159688106, 25.197831843053176], [55.26662280471876, 25.19942695045965], [55.26533443532259, 25.198642777864556], [55.2638147, 25.18570620880677], [55.25697589104833, 25.186945350390506], [55.25117822876559, 25.190474127068427], [55.2473043546784, 25.195755314579763], [55.245944030999766, 25.2019849], [55.252807803118934, 25.206137956946822], [55.25117822876559, 25.213495672931572], [55.25697589104833, 25.217024449609493], [55.2638147, 25.218263591193228]]]}, "properties": {"shop_id": "bd_city_walk", "brand": "Bedashing", "branch_name": "City Walk", "segment": "women", "source": "isochrone_6min", "area_km2": 7.71}}, {"type": "Feature", "geometry": {"type": "Polygon", "coordinates": [[[54.3847796, 24.490563293323927], [54.39799867244791, 24.497197568685127], [54.40920526094682, 24.490336058478057], [54.401192341478385, 24.474183585420235], [54.4094532435578, 24.467954], [54.401192341478385, 24.461724414579763], [54.40920526094682, 24.44557194152194], [54.39799867244791, 24.43871043131487], [54.3847796, 24.44534470667607], [54.37156052755209, 24.43871043131487], [54.360353939053184, 24.44557194152194], [54.35286593601426, 24.45584091723843], [54.360105956442204, 24.467954], [54.36836685852162, 24.474183585420235], [54.367332699323704, 24.483941184627184], [54.37156052755209, 24.497197568685127], [54.3847796, 24.490563293323927]]]}, "properties": {"shop_id": "bd_delma", "brand": "Bedashing", "branch_name": "Delma", "segment": "women", "source": "isochrone_6min", "area_km2": 25.19}}, {"type": "Feature", "geometry": {"type": "Polygon", "coordinates": [[[55.1659736, 25.050006460795487], [55.17280330227163, 25.054193549609494], [55.1687779653964, 25.04171194954035], [55.182461959851146, 25.045383585420236], [55.17787151473233, 25.039154], [55.17696583990077, 25.035000943053177], [55.17158233079281, 25.0340381009193], [55.16749131161592, 25.035811877864557], [55.1659736, 25.03553651306817], [55.16445588838408, 25.035811877864557], [55.1631692346036, 25.03659605045965], [55.16230952003308, 25.037769647684392], [55.16200762842256, 25.039154], [55.154981360099235, 25.043307056946823], [55.15335395571619, 25.050664772931572], [55.156487902400514, 25.06004226334652], [55.1659736, 25.050006460795487]]]}, "properties": {"shop_id": "bd_jumeirah_park", "brand": "Bedashing", "branch_name": "Jumeirah Park", "segment": "women", "source": "isochrone_6min", "area_km2": 3.72}}, {"type": "Feature", "geometry": {"type": "Polygon", "coordinates": [[[54.3537762, 24.4905232106535], [54.36699431899564, 24.48811376868513], [54.37122184228338, 24.474857384627185], [54.37657003010595, 24.46752240197255], [54.37153994202346, 24.4588702], [54.37657003010595, 24.45021799802745], [54.37820009919674, 24.43648814152194], [54.36321771356831, 24.43798193665348], [54.3537762, 24.436260906676072], [54.34697831023081, 24.443830650390506], [54.336330557716614, 24.442883015372814], [54.33736464232371, 24.452640614579764], [54.31923559050993, 24.4588702], [54.330982369894045, 24.46752240197255], [54.336330557716614, 24.474857384627185], [54.34055808100436, 24.48811376868513], [54.3537762, 24.4905232106535]]]}, "properties": {"shop_id": "bd_khaleej_al_arabi", "brand": "Bedashing", "branch_name": "Khaleej Al Arabi", "segment": "women", "source": "isochrone_6min", "area_km2": 22.08}}, {"type": "Feature", "geometry": {"type": "Polygon", "coordinates": [[[54.5989056, 24.450832960795488], [54.6057024708696, 24.455020049609494], [54.62332583842824, 24.46236255847806], [54.63081217912378, 24.45209358276157], [54.623573765986855, 24.4399805], [54.61531469783509, 24.433750914579765], [54.61634862744874, 24.423993315372815], [54.612121737802, 24.410736931314872], [54.5989056, 24.423701808806772], [54.594374352753604, 24.42995413359367], [54.58634662023691, 24.42846972706843], [54.57611518634016, 24.431328298027452], [54.58114452048947, 24.4399805], [54.582496502164915, 24.446210085420237], [54.58634662023691, 24.451491272931573], [54.594374352753604, 24.45000686640633], [54.5989056, 24.450832960795488]]]}, "properties": {"shop_id": "bd_khalifa_city_a", "brand": "Bedashing", "branch_name": "Khalifa City A", "segment": "women", "source": "isochrone_6min", "area_km2": 14.66}}, {"type": "Feature", "geometry": {"type": "Polygon", "coordinates": [[[54.4647516, 24.432147], [54.4647516, 24.432147], [54.4647516, 24.432147], [54.4647516, 24.432147], [54.4647516, 24.432147], [54.487540597897166, 24.423494798027452], [54.47730979958705, 24.420636227068428], [54.47154804864137, 24.417107450390507], [54.4647516, 24.424912026136344], [54.46173095615939, 24.425462755729114], [54.45917017796131, 24.4270311009193], [54.45745912067291, 24.429378295368785], [54.45291161588334, 24.432147], [54.44834352151404, 24.438376585420237], [54.45637946694197, 24.43982084862105], [54.46173095615939, 24.438831244270887], [54.4647516, 24.432147]]]}, "properties": {"shop_id": "bd_ministries_complex", "brand": "Bedashing", "branch_name": "Ministries Complex", "segment": "women", "source": "isochrone_6min", "area_km2": 3.31}}, {"type": "Feature", "geometry": {"type": "Polygon", "coordinates": [[[55.4329599, 25.2322986], [55.4329599, 25.2322986], [55.4329599, 25.2322986], [55.4329599, 25.2322986], [55.44090439873369, 25.2322986], [55.44029965977612, 25.229529895368785], [55.44138631339158, 25.22462475137895], [55.437520242065744, 25.22227223359367], [55.4329599, 25.21601990880677], [55.428399557934256, 25.22227223359367], [55.42032027991262, 25.220787827068428], [55.41644544050373, 25.226069014579764], [55.42104315189946, 25.2322986], [55.42562014022388, 25.235067304631215], [55.42734229107228, 25.2374144990807], [55.428399557934256, 25.24232496640633], [55.4329599, 25.2322986]]]}, "properties": {"shop_id": "bd_mirdif_35", "brand": "Bedashing", "branch_name": "Mirdif 35", "segment": "women", "source": "isochrone_6min", "area_km2": 3.35}}, {"type": "Feature", "geometry": {"type": "Polygon", "coordinates": [[[54.5403404, 24.389392393323927], [54.54713333249792, 24.381822649609493], [54.55289210260112, 24.37829387293157], [54.55127345984317, 24.370936156946822], [54.558091188049374, 24.3667831], [54.55127345984317, 24.362630043053176], [54.54870820173408, 24.35910925137895], [54.54486902166528, 24.35675673359367], [54.5403404, 24.35050440880677], [54.53581177833472, 24.35675673359367], [54.53476186551061, 24.3616672009193], [54.53669604671894, 24.36539874768439], [54.53245116086694, 24.3667831], [54.52394081023523, 24.373012685420235], [54.527788697398876, 24.37829387293157], [54.533547467502075, 24.381822649609493], [54.5403404, 24.389392393323927]]]}, "properties": {"shop_id": "bd_mohammed_bin_zayed_city", "brand": "Bedashing", "branch_name": "Mohammed Bin Zayed City", "segment": "women", "source": "isochrone_6min", "area_km2": 6.75}}, {"type": "Feature", "geometry": {"type": "Polygon", "coordinates": [[[55.3696875, 25.182171793323928], [55.37652392872625, 25.174602049609494], [55.382319573151314, 25.171073272931572], [55.38069056596608, 25.163715556946823], [55.37365737759366, 25.1595625], [55.377022877310715, 25.156793795368785], [55.372494627366954, 25.15700455045965], [55.37652392872625, 25.144522950390506], [55.3696875, 25.14328380880677], [55.362851071273745, 25.144522950390506], [55.35705542684868, 25.148051727068427], [55.35318290105088, 25.153332914579764], [55.351823050828514, 25.1595625], [55.35318290105088, 25.165792085420236], [55.3521429539565, 25.175549684627185], [55.360192460102425, 25.18045076334652], [55.3696875, 25.182171793323928]]]}, "properties": {"shop_id": "bd_nad_al_sheba", "brand": "Bedashing", "branch_name": "Nad Al Sheba", "segment": "women", "source": "isochrone_6min", "area_km2": 9.24}}, {"type": "Feature", "geometry": {"type": "Polygon", "coordinates": [[[54.6254375, 24.50317998693183], [54.62694863071966, 24.502904622135443], [54.62822970548568, 24.50212044954035], [54.62908569227792, 24.500946852315607], [54.62938627486679, 24.4995625], [54.62908569227792, 24.498178147684392], [54.63381411645705, 24.49188865137895], [54.628459761439316, 24.492878255729114], [54.6254375, 24.492327526136343], [54.618637411761526, 24.484522950390506], [54.61706088354294, 24.49188865137895], [54.61449292316623, 24.495409443053177], [54.61359117539963, 24.4995625], [54.621789307722075, 24.500946852315607], [54.622645294514314, 24.50212044954035], [54.6254375, 24.4995625], [54.6254375, 24.50317998693183]]]}, "properties": {"shop_id": "bd_noya_plaza", "brand": "Bedashing", "branch_name": "Noya Plaza", "segment": "women", "source": "isochrone_6min", "area_km2": 1.91}}, {"type": "Feature", "geometry": {"type": "Polygon", "coordinates": [[[55.9198717, 25.7831940106535], [55.9332302963662, 25.780784568685128], [55.944555167531625, 25.773923058478058], [55.942907774658245, 25.760193201972548], [55.93184005241701, 25.751541], [55.93645767375394, 25.745311414579763], [55.93256605473055, 25.740030227068427], [55.92674183527404, 25.736501450390506], [55.9198717, 25.740688539204513], [55.9152916098173, 25.74151463359367], [55.90717734526945, 25.740030227068427], [55.89683562534176, 25.74288879802745], [55.89493763246456, 25.751541], [55.88762119547846, 25.76365408276157], [55.90717734526945, 25.763051772931572], [55.906513103633806, 25.780784568685128], [55.9198717, 25.7831940106535]]]}, "properties": {"shop_id": "bd_ras_al_khaimah", "brand": "Bedashing", "branch_name": "Ras Al Khaimah", "segment": "women", "source": "isochrone_6min", "area_km2": 18.31}}, {"type": "Feature", "geometry": {"type": "Polygon", "coordinates": [[[54.6718965, 24.535226660795487], [54.67869793111393, 24.539413749609494], [54.68027477066393, 24.53204804862105], [54.675545412719735, 24.525758552315608], [54.6718965, 24.5243742], [54.6718965, 24.5243742], [54.6718965, 24.5243742], [54.67340792913643, 24.521032077864557], [54.6718965, 24.52075671306817], [54.66736221259072, 24.51434783359367], [54.65444176945016, 24.508387015372815], [54.65547639276121, 24.518144614579764], [54.654123503996765, 24.5243742], [54.65547639276121, 24.530603785420237], [54.66351822933608, 24.53204804862105], [54.66736221259072, 24.53440056640633], [54.6718965, 24.535226660795487]]]}, "properties": {"shop_id": "bd_shahama", "brand": "Bedashing", "branch_name": "Shahama", "segment": "women", "source": "isochrone_6min", "area_km2": 4.67}}, {"type": "Feature", "geometry": {"type": "Polygon", "coordinates": [[[54.6238561, 24.370794693323926], [54.63328934214565, 24.36907366334652], [54.648258602162066, 24.370567458478057], [54.640253280010135, 24.354414985420235], [54.63568821983318, 24.3481854], [54.64662996112519, 24.33953319802745], [54.64128645868719, 24.332198215372813], [54.637062639003915, 24.31894183131487], [54.6238561, 24.32557610667607], [54.61064956099608, 24.31894183131487], [54.61548952783015, 24.34051155137895], [54.591972694424726, 24.33607231723843], [54.599205850347545, 24.3481854], [54.6010822388748, 24.356837601972547], [54.59945359783793, 24.370567458478057], [54.61442285785434, 24.36907366334652], [54.6238561, 24.370794693323926]]]}, "properties": {"shop_id": "bd_shakhbout_city", "brand": "Bedashing", "branch_name": "Shakhbout City", "segment": "women", "source": "isochrone_6min", "area_km2": 20.21}}, {"type": "Feature", "geometry": {"type": "Polygon", "coordinates": [[[54.5868369, 24.50977109119323], [54.593636659983304, 24.508531949609495], [54.599401218149126, 24.505003172931573], [54.60325297277257, 24.499721985420237], [54.611515551567315, 24.4934924], [54.59778094851505, 24.489339343053178], [54.59242104139961, 24.4883765009193], [54.5913700733222, 24.483466033593672], [54.5868369, 24.477213708806772], [54.57739278891208, 24.47260413665348], [54.56938645812622, 24.477505215372815], [54.57042082722743, 24.487262814579765], [54.574991147247694, 24.4934924], [54.57589285148495, 24.497645456946824], [54.56938645812622, 24.509479584627186], [54.57739278891208, 24.51438066334652], [54.5868369, 24.50977109119323]]]}, "properties": {"shop_id": "bd_west_yas", "brand": "Bedashing", "branch_name": "West Yas", "segment": "women", "source": "isochrone_6min", "area_km2": 10.28}}, {"type": "Feature", "geometry": {"type": "Polygon", "coordinates": [[[55.4294728, 25.34690209119323], [55.43631885967596, 25.345662949609494], [55.437906045883956, 25.33829724862105], [55.440491366745675, 25.334776456946823], [55.44736241605588, 25.3306234], [55.44600065011851, 25.324393814579764], [55.44212266882594, 25.319112627068428], [55.43403683978397, 25.32059703359367], [55.4294728, 25.319770939204513], [55.419964383783395, 25.30973513665348], [55.41190353774176, 25.314636215372815], [55.40651745261318, 25.321971198027452], [55.4046261110335, 25.3306234], [55.41845423325432, 25.334776456946823], [55.41682293117406, 25.342134172931573], [55.42262674032404, 25.345662949609494], [55.4294728, 25.34690209119323]]]}, "properties": {"shop_id": "bd_zawaya_walk", "brand": "Bedashing", "branch_name": "Zawaya Walk", "segment": "women", "source": "isochrone_6min", "area_km2": 10.08}}, {"type": "Feature", "geometry": {"type": "Polygon", "coordinates": [[[54.6411421, 24.47538109332393], [54.64567380714056, 24.46279816640633], [54.643933267649665, 24.45532974954035], [54.64843577255962, 24.455540504631216], [54.64903671429003, 24.4527718], [54.64843577255962, 24.450003095368785], [54.6411421, 24.4527718], [54.6411421, 24.4527718], [54.6411421, 24.441919339204514], [54.6381209619063, 24.446087555729115], [54.63276859705101, 24.44509795137895], [54.63020159116057, 24.448618743053178], [54.62337921784746, 24.4527718], [54.633848427440384, 24.455540504631216], [54.62858184557652, 24.464282572931573], [54.63434453928917, 24.467811349609494], [54.6411421, 24.47538109332393]]]}, "properties": {"shop_id": "bd_zayed_international_airport", "brand": "Bedashing", "branch_name": "Zayed International Airport", "segment": "women", "source": "isochrone_6min", "area_km2": 4.05}}, {"type": "Feature", "geometry": {"type": "Polygon", "coordinates": [[[55.21607, 25.11865869119323], [55.222903228890736, 25.117419549609494], [55.22168162694499, 25.1074958990807], [55.22340194393903, 25.105148704631215], [55.23392608759833, 25.10238], [55.23898232480947, 25.09372779802745], [55.22448744041749, 25.09470615137895], [55.22062548592716, 25.09235363359367], [55.21607, 25.095145026136343], [55.211514514072846, 25.09235363359367], [55.20344383937377, 25.090869227068428], [55.19957312613718, 25.096150414579764], [55.19821391240168, 25.10238], [55.19957312613718, 25.108609585420236], [55.20765255958251, 25.11005384862105], [55.211514514072846, 25.11240636640633], [55.21607, 25.11865869119323]]]}, "properties": {"shop_id": "tt_al_barsha", "brand": "Tips & Toes", "branch_name": "Al Barsha", "segment": "women", "source": "isochrone_6min", "area_km2": 6.76}}, {"type": "Feature", "geometry": {"type": "Polygon", "coordinates": [[[52.67199, 24.08635246079549], [52.68140307581347, 24.096388263346523], [52.67755579077251, 24.0806158990807], [52.679262056093606, 24.078268704631217], [52.675925608397904, 24.0755], [52.67199, 24.0755], [52.67199, 24.0755], [52.67199, 24.0755], [52.67199, 24.07188251306817], [52.670483907869844, 24.07215787786456], [52.66920710461375, 24.072942050459652], [52.67199, 24.0755], [52.654279762209434, 24.0755], [52.65562787378939, 24.081729585420238], [52.66364131384125, 24.08317384862105], [52.6652125854143, 24.090539549609495], [52.67199, 24.08635246079549]]]}, "properties": {"shop_id": "tt_al_dhannah_mall", "brand": "Tips & Toes", "branch_name": "Al Dhannah Mall", "segment": "women", "source": "isochrone_6min", "area_km2": 3.04}}, {"type": "Feature", "geometry": {"type": "Polygon", "coordinates": [[[54.71182, 24.45338869119323], [54.716351144085245, 24.44713636640633], [54.72437869383765, 24.448620772931573], [54.728228724255494, 24.443339585420237], [54.7295806751509, 24.43711], [54.7346098947993, 24.428457798027452], [54.72019246255844, 24.42943615137895], [54.716351144085245, 24.42708363359367], [54.71182, 24.426257539204514], [54.70728885591476, 24.42708363359367], [54.699261306162356, 24.425599227068428], [54.70452723366423, 24.434341295368785], [54.7078731832998, 24.43711], [54.71182, 24.43711], [54.71182, 24.43711], [54.69860416308471, 24.46635356868513], [54.71182, 24.45338869119323]]]}, "properties": {"shop_id": "tt_al_falah_1", "brand": "Tips & Toes", "branch_name": "Al Falah 1", "segment": "women", "source": "isochrone_6min", "area_km2": 6.26}}, {"type": "Feature", "geometry": {"type": "Polygon", "coordinates": [[[54.71182, 24.45338869119323], [54.716351144085245, 24.44713636640633], [54.72437869383765, 24.448620772931573], [54.728228724255494, 24.443339585420237], [54.7295806751509, 24.43711], [54.7346098947993, 24.428457798027452], [54.72019246255844, 24.42943615137895], [54.716351144085245, 24.42708363359367], [54.71182, 24.426257539204514], [54.70728885591476, 24.42708363359367], [54.699261306162356, 24.425599227068428], [54.70452723366423, 24.434341295368785], [54.7078731832998, 24.43711], [54.71182, 24.43711], [54.71182, 24.43711], [54.69860416308471, 24.46635356868513], [54.71182, 24.45338869119323]]]}, "properties": {"shop_id": "tt_al_falah_5", "brand": "Tips & Toes", "branch_name": "Al Falah 5", "segment": "women", "source": "isochrone_6min", "area_km2": 6.26}}, {"type": "Feature", "geometry": {"type": "Polygon", "coordinates": [[[55.15223, 25.037704973863658], [55.15374760418429, 25.033812122135444], [55.16064250066588, 25.03814384862105], [55.163221461812036, 25.034623056946824], [55.16412707253516, 25.03047], [55.163221461812036, 25.026316943053178], [55.157838333777256, 25.0253541009193], [55.156782812552855, 25.020443633593672], [55.15223, 25.019617539204514], [55.14540078117073, 25.015430450390507], [55.13470395694609, 25.014482815372816], [55.13574280728195, 25.024240414579765], [55.127444432218425, 25.03047], [55.120171569714906, 25.04258308276157], [55.127693539724525, 25.05285205847806], [55.14767718744715, 25.04049636640633], [55.15223, 25.037704973863658]]]}, "properties": {"shop_id": "tt_al_furjan_pavilion", "brand": "Tips & Toes", "branch_name": "Al Furjan Pavilion", "segment": "women", "source": "isochrone_6min", "area_km2": 9.63}}, {"type": "Feature", "geometry": {"type": "Polygon", "coordinates": [[[55.15223, 25.037704973863658], [55.15374760418429, 25.033812122135444], [55.16064250066588, 25.03814384862105], [55.163221461812036, 25.034623056946824], [55.16412707253516, 25.03047], [55.163221461812036, 25.026316943053178], [55.157838333777256, 25.0253541009193], [55.156782812552855, 25.020443633593672], [55.15223, 25.019617539204514], [55.14540078117073, 25.015430450390507], [55.13470395694609, 25.014482815372816], [55.13574280728195, 25.024240414579765], [55.127444432218425, 25.03047], [55.120171569714906, 25.04258308276157], [55.127693539724525, 25.05285205847806], [55.14767718744715, 25.04049636640633], [55.15223, 25.037704973863658]]]}, "properties": {"shop_id": "tt_al_furjan_west", "brand": "Tips & Toes", "branch_name": "Al Furjan West", "segment": "women", "source": "isochrone_6min", "area_km2": 9.63}}, {"type": "Feature", "geometry": {"type": "Polygon", "coordinates": [[[55.78169, 25.690234973863657], [55.786267452040185, 25.69302636640633], [55.79014802850196, 25.69067384862105], [55.78169, 25.683], [55.78169, 25.683], [55.79826642019479, 25.676770414579764], [55.79014802850196, 25.67532615137895], [55.79122635841705, 25.66211173665348], [55.78169, 25.660390706676072], [55.77482382193972, 25.667960450390506], [55.76406910728758, 25.667012815372814], [55.758667194173896, 25.67434779802745], [55.76972854138159, 25.683], [55.77063905320347, 25.687153056946823], [55.76900295724706, 25.694510772931572], [55.77711254795981, 25.69302636640633], [55.78169, 25.690234973863657]]]}, "properties": {"shop_id": "tt_al_hamra_mall", "brand": "Tips & Toes", "branch_name": "Al Hamra Mall", "segment": "women", "source": "isochrone_6min", "area_km2": 7.47}}, {"type": "Feature", "geometry": {"type": "Polygon", "coordinates": [[[54.70437, 24.394588691193228], [54.70738935629433, 24.384994244270885], [54.70994904296338, 24.3834258990807], [54.72077108455968, 24.384539585420235], [54.72902611944963, 24.37831], [54.72077108455968, 24.372080414579763], [54.716922846667615, 24.366799227068427], [54.71380548841979, 24.357421736653478], [54.70437, 24.367457539204512], [54.69757644833775, 24.363270450390505], [54.69181715333238, 24.366799227068427], [54.69708062908458, 24.375541295368784], [54.69253506266418, 24.37831], [54.687968915440315, 24.384539585420235], [54.69181715333238, 24.38982077293157], [54.69757644833775, 24.393349549609493], [54.70437, 24.394588691193228]]]}, "properties": {"shop_id": "tt_al_shamkhah_villa", "brand": "Tips & Toes", "branch_name": "Al Shamkhah Villa", "segment": "women", "source": "isochrone_6min", "area_km2": 8.18}}, {"type": "Feature", "geometry": {"type": "Polygon", "coordinates": [[[55.27548, 25.05718748693183], [55.27699789006994, 25.056912122135444], [55.28108939027289, 25.0586858990807], [55.291970298568714, 25.059799585420237], [55.287379313700846, 25.05357], [55.2828090215861, 25.050801295368785], [55.28108939027289, 25.0484541009193], [55.27548, 25.05357], [55.27548, 25.05357], [55.27548, 25.05357], [55.272675304863554, 25.05101205045965], [55.26815097841391, 25.050801295368785], [55.25763102944874, 25.05357], [55.26815097841391, 25.056338704631216], [55.272675304863554, 25.05612794954035], [55.27396210993006, 25.056912122135444], [55.27548, 25.05718748693183]]]}, "properties": {"shop_id": "tt_arabian_ranches", "brand": "Tips & Toes", "branch_name": "Arabian Ranches", "segment": "women", "source": "isochrone_6min", "area_km2": 1.82}}, {"type": "Feature", "geometry": {"type": "Polygon", "coordinates": [[[55.23549, 25.07660869119323], [55.23852594759753, 25.067014244270887], [55.24390454954141, 25.06800384862105], [55.24648413879692, 25.064483056946823], [55.24738997008272, 25.06033], [55.24281942586462, 25.057561295368785], [55.23829484984714, 25.05777205045965], [55.23700797379877, 25.056987877864557], [55.23549, 25.05671251306817], [55.23549, 25.06033], [55.22286817568788, 25.048819227068428], [55.23549, 25.06033], [55.223590029917276, 25.06033], [55.224495861203074, 25.064483056946823], [55.227075450458585, 25.06800384862105], [55.2309360786037, 25.07035636640633], [55.23549, 25.07660869119323]]]}, "properties": {"shop_id": "tt_arjan", "brand": "Tips & Toes", "branch_name": "Arjan", "segment": "women", "source": "isochrone_6min", "area_km2": 2.56}}, {"type": "Feature", "geometry": {"type": "Polygon", "coordinates": [[[55.26719, 25.197314973863655], [55.27022917353281, 25.196764244270884], [55.27561349066814, 25.197753848621048], [55.27819582094198, 25.19423305694682], [55.28505892211812, 25.19008], [55.27819582094198, 25.185926943053175], [55.27280566044543, 25.1849641009193], [55.27174876029922, 25.18005363359367], [55.26719, 25.17922753920451], [55.26263123970078, 25.18005363359367], [55.25455476399778, 25.178569227068426], [55.25618417905802, 25.185926943053175], [55.25527738525459, 25.19008], [55.25985278603868, 25.192848704631214], [55.264382169777285, 25.192637949540348], [55.26567041323359, 25.19342212213544], [55.26719, 25.197314973863655]]]}, "properties": {"shop_id": "tt_business_bay", "brand": "Tips & Toes", "branch_name": "Business Bay", "segment": "women", "source": "isochrone_6min", "area_km2": 3.77}}, {"type": "Feature", "geometry": {"type": "Polygon", "coordinates": [[[55.40807, 25.223254973863657], [55.41110982116449, 25.222704244270886], [55.42562267847726, 25.232007184627186], [55.4245822493356, 25.222249585420236], [55.43289323595852, 25.21602], [55.440177151485884, 25.20390691723843], [55.42562267847726, 25.200032815372815], [55.412629731746726, 25.20599363359367], [55.40807, 25.21240251306817], [55.40807, 25.21602], [55.40807, 25.21602], [55.400731222517514, 25.213251295368785], [55.40807, 25.21602], [55.40807, 25.21602], [55.40526157144364, 25.21857794954035], [55.40807, 25.21602], [55.40807, 25.223254973863657]]]}, "properties": {"shop_id": "tt_city_centre_mirdif", "brand": "Tips & Toes", "branch_name": "City Centre Mirdif", "segment": "women", "source": "isochrone_6min", "area_km2": 6.26}}, {"type": "Feature", "geometry": {"type": "Polygon", "coordinates": [[[55.36038, 25.205214973863658], [55.363419370673164, 25.204664244270887], [55.36880403706996, 25.20565384862105], [55.37138653485035, 25.202133056946824], [55.37229338747427, 25.19798], [55.36771768990024, 25.195211295368786], [55.365996024713304, 25.1928641009193], [55.363419370673164, 25.191295755729115], [55.36038, 25.187127539204514], [55.35582094399025, 25.187953633593672], [55.35195596293004, 25.19030615137895], [55.36038, 25.19798], [55.348466612525726, 25.19798], [55.35304231009976, 25.200748704631216], [55.354763975286694, 25.2030958990807], [55.357340629326835, 25.204664244270887], [55.36038, 25.205214973863658]]]}, "properties": {"shop_id": "tt_creek_beach", "brand": "Tips & Toes", "branch_name": "Creek Beach", "segment": "women", "source": "isochrone_6min", "area_km2": 2.58}}, {"type": "Feature", "geometry": {"type": "Polygon", "coordinates": [[[55.35259, 25.238148691193228], [55.359429926521564, 25.236909549609493], [55.36522853623431, 25.23338077293157], [55.369103043374004, 25.228099585420235], [55.36450572623407, 25.22187], [55.369103043374004, 25.215640414579763], [55.36522853623431, 25.210359227068427], [55.35714995101438, 25.21184363359367], [55.35259, 25.20559130880677], [55.34955003265708, 25.215185755729113], [55.34697287278475, 25.2167541009193], [55.34892043480578, 25.22048564768439], [55.327765570345676, 25.22187], [55.34892043480578, 25.223254352315607], [55.344164309177124, 25.22954384862105], [55.345750073478435, 25.236909549609493], [55.35259, 25.238148691193228]]]}, "properties": {"shop_id": "tt_dubai_festival_city", "brand": "Tips & Toes", "branch_name": "Dubai Festival City", "segment": "women", "source": "isochrone_6min", "area_km2": 6.12}}, {"type": "Feature", "geometry": {"type": "Polygon", "coordinates": [[[55.14022, 25.094727434659145], [55.14781087969091, 25.093350610677216], [55.154246116760376, 25.08942974770175], [55.15854600470014, 25.08356176157804], [55.16005592454996, 25.07664], [55.15854600470014, 25.069718238421963], [55.154246116760376, 25.063850252298252], [55.14781087969091, 25.059929389322786], [55.14022, 25.058552565340857], [55.13262912030909, 25.059929389322786], [55.12619388323962, 25.063850252298252], [55.12189399529986, 25.069718238421963], [55.12038407545004, 25.07664], [55.12189399529986, 25.08356176157804], [55.12619388323962, 25.08942974770175], [55.13262912030909, 25.093350610677216], [55.14022, 25.094727434659145]]]}, "properties": {"shop_id": "tt_dubai_marina_mall", "brand": "Tips & Toes", "branch_name": "Dubai Marina Mall", "segment": "women", "source": "circle_2km", "area_km2": 12.26}}, {"type": "Feature", "geometry": {"type": "Polygon", "coordinates": [[[55.37478, 25.129307434659143], [55.38237302546845, 25.127930610677215], [55.38881008164029, 25.12400974770175], [55.393111185065386, 25.118141761578038], [55.39462153173689, 25.11122], [55.393111185065386, 25.10429823842196], [55.38881008164029, 25.09843025229825], [55.38237302546845, 25.094509389322784], [55.37478, 25.093132565340856], [55.36718697453155, 25.094509389322784], [55.360749918359716, 25.09843025229825], [55.356448814934616, 25.10429823842196], [55.354938468263114, 25.11122], [55.356448814934616, 25.118141761578038], [55.360749918359716, 25.12400974770175], [55.36718697453155, 25.127930610677215], [55.37478, 25.129307434659143]]]}, "properties": {"shop_id": "tt_dubai_silicon_central", "brand": "Tips & Toes", "branch_name": "Dubai Silicon Central", "segment": "women", "source": "circle_2km", "area_km2": 12.27}}, {"type": "Feature", "geometry": {"type": "Polygon", "coordinates": [[[55.1351, 25.133608691193228], [55.14193406452096, 25.132369549609493], [55.14772770466955, 25.12884077293157], [55.146099260835086, 25.121483056946822], [55.14700551413688, 25.11733], [55.1351, 25.11733], [55.14772770466955, 25.105819227068427], [55.13965604301397, 25.10730363359367], [55.1351, 25.106477539204512], [55.12826593547904, 25.102290450390505], [55.1266815302203, 25.10965615137895], [55.11860110874737, 25.111100414579763], [55.11724172879468, 25.11733], [55.10301882256433, 25.12944308276157], [55.11054612980921, 25.139712058478057], [55.12826593547904, 25.132369549609493], [55.1351, 25.133608691193228]]]}, "properties": {"shop_id": "tt_golden_mile_2", "brand": "Tips & Toes", "branch_name": "Golden Mile 2", "segment": "women", "source": "isochrone_6min", "area_km2": 9.87}}, {"type": "Feature", "geometry": {"type": "Polygon", "coordinates": [[[55.77883, 24.290418691193228], [55.788257736481626, 24.29502826334652], [55.796250185546576, 24.290127184627185], [55.789755073252685, 24.278293056946822], [55.782771738025446, 24.27414], [55.77883, 24.27414], [55.77883, 24.27414], [55.77883, 24.27414], [55.77883, 24.27052251306817], [55.77732156216294, 24.270797877864556], [55.770468310937645, 24.26646615137895], [55.75606943072357, 24.26548779802745], [55.75419413734098, 24.27414], [55.76790492674731, 24.278293056946822], [55.76628746640647, 24.28565077293157], [55.76940226351837, 24.29502826334652], [55.77883, 24.290418691193228]]]}, "properties": {"shop_id": "tt_hili_mall", "brand": "Tips & Toes", "branch_name": "Hili Mall", "segment": "women", "source": "isochrone_6min", "area_km2": 7.29}}, {"type": "Feature", "geometry": {"type": "Polygon", "coordinates": [[[55.73553, 24.261812460795486], [55.74231673258713, 24.265999549609493], [55.74807024665975, 24.26247077293157], [55.758286419244506, 24.259612201972548], [55.74735305793448, 24.25096], [55.751914621856045, 24.244730414579763], [55.74807024665975, 24.239449227068427], [55.744956017482124, 24.23007173665348], [55.73553, 24.2193069893465], [55.72610398251787, 24.23007173665348], [55.71114618705048, 24.22857794152194], [55.71914537814395, 24.244730414579763], [55.70104608102442, 24.25096], [55.71277358075549, 24.259612201972548], [55.722989753340244, 24.26247077293157], [55.72874326741287, 24.265999549609493], [55.73553, 24.261812460795486]]]}, "properties": {"shop_id": "tt_jimi_district", "brand": "Tips & Toes", "branch_name": "Jimi District", "segment": "women", "source": "isochrone_6min", "area_km2": 15.29}}, {"type": "Feature", "geometry": {"type": "Polygon", "coordinates": [[[54.33797, 24.47398929332393], [54.34741095225992, 24.47226826334652], [54.355414605120714, 24.467367184627186], [54.360762474987624, 24.46003220197255], [54.37250855601275, 24.45138], [54.369879464982674, 24.43926691723843], [54.355414605120714, 24.435392815372815], [54.34099110472317, 24.444695755729114], [54.33797, 24.444145026136344], [54.334948895276824, 24.444695755729114], [54.33238772636137, 24.4462641009193], [54.31517752501237, 24.44272779802745], [54.31329960284803, 24.45138], [54.32702961200594, 24.455533056946823], [54.32540988431308, 24.462890772931573], [54.33117251437285, 24.466419549609494], [54.33797, 24.47398929332393]]]}, "properties": {"shop_id": "tt_khaleej_al_arabi", "brand": "Tips & Toes", "branch_name": "Khaleej Al Arabi", "segment": "women", "source": "isochrone_6min", "area_km2": 14.03}}, {"type": "Feature", "geometry": {"type": "Polygon", "coordinates": [[[54.57495, 24.430982460795487], [54.579480534179964, 24.43015636640633], [54.583321335600424, 24.42780384862105], [54.59135651559309, 24.426359585420236], [54.59961428404436, 24.42013], [54.59135651559309, 24.413900414579764], [54.58750700340063, 24.408619227068428], [54.581745801269946, 24.405090450390507], [54.57495, 24.397520706676072], [54.57041946582004, 24.41010363359367], [54.56239299659937, 24.408619227068428], [54.552163172787374, 24.41147779802745], [54.55719171548807, 24.42013], [54.56401232293794, 24.424283056946823], [54.56657866439958, 24.42780384862105], [54.57041946582004, 24.43015636640633], [54.57495, 24.430982460795487]]]}, "properties": {"shop_id": "tt_khalifa_city", "brand": "Tips & Toes", "branch_name": "Khalifa City", "segment": "women", "source": "isochrone_6min", "area_km2": 8.7}}, {"type": "Feature", "geometry": {"type": "Polygon", "coordinates": [[[55.68543, 24.15761929332393], [55.694847451302294, 24.155898263346522], [55.70283118101323, 24.150997184627187], [55.701799731833034, 24.141239585420237], [55.71003898619022, 24.13501], [55.708165738656994, 24.126357798027453], [55.70283118101323, 24.119022815372816], [55.69221056493765, 24.119970450390507], [55.68543, 24.118731308806773], [55.680909623374895, 24.124983633593672], [55.672901149670466, 24.12349922706843], [55.662694261343, 24.126357798027453], [55.67361768662869, 24.13501], [55.674516845444636, 24.139163056946824], [55.67986162207576, 24.1401258990807], [55.67224556817678, 24.16425356868513], [55.68543, 24.15761929332393]]]}, "properties": {"shop_id": "tt_makani", "brand": "Tips & Toes", "branch_name": "Makani", "segment": "women", "source": "isochrone_6min", "area_km2": 12.84}}, {"type": "Feature", "geometry": {"type": "Polygon", "coordinates": [[[54.32143, 24.5076930106535], [54.33087280111754, 24.496928263346522], [54.33399257538218, 24.487550772931574], [54.337843795737825, 24.482269585420237], [54.333274109655875, 24.47604], [54.33237253049189, 24.47188694305318], [54.33399257538218, 24.46452922706843], [54.33087280111754, 24.45515173665348], [54.32143, 24.459761308806772], [54.311987198882456, 24.45515173665348], [54.315846633163474, 24.4709241009193], [54.314134979672076, 24.473271295368786], [54.296754771550255, 24.47604], [54.289514286065334, 24.48815308276157], [54.2970027700902, 24.49842205847806], [54.308210078435444, 24.50528356868513], [54.32143, 24.5076930106535]]]}, "properties": {"shop_id": "tt_marina_mall_auh", "brand": "Tips & Toes", "branch_name": "Marina Mall AUH", "segment": "women", "source": "isochrone_6min", "area_km2": 16.38}}, {"type": "Feature", "geometry": {"type": "Polygon", "coordinates": [[[55.13985, 25.10403497386366], [55.142886852074774, 25.103484244270888], [55.14546137095029, 25.1019158990807], [55.14718160946583, 25.099568704631217], [55.1438178384507, 25.0968], [55.15084741419874, 25.09264694305318], [55.14826705642543, 25.089126151378952], [55.146682917168235, 25.081760450390508], [55.13985, 25.080521308806773], [55.13833157396262, 25.09345787786456], [55.12722441536186, 25.08528922706843], [55.12335387870189, 25.090570414579766], [55.135882161549304, 25.0968], [55.13985, 25.0968], [55.13704431452486, 25.09935794954035], [55.13833157396262, 25.100142122135445], [55.13985, 25.10403497386366]]]}, "properties": {"shop_id": "tt_marina_vista", "brand": "Tips & Toes", "branch_name": "Marina Vista", "segment": "women", "source": "isochrone_6min", "area_km2": 2.96}}, {"type": "Feature", "geometry": {"type": "Polygon", "coordinates": [[[55.19694, 25.04034], [55.19694, 25.04034], [55.19694, 25.04034], [55.19694, 25.04034], [55.20090600992806, 25.04034], [55.20060411539828, 25.038955647684393], [55.20535317754317, 25.03266615137895], [55.2014931788762, 25.03031363359367], [55.19694, 25.03672251306817], [55.19390454741587, 25.033655755729114], [55.19133121497122, 25.0352241009193], [55.189611769203445, 25.037571295368785], [55.18900798014386, 25.04034], [55.19327588460172, 25.041724352315608], [55.19694, 25.04034], [55.19694, 25.04034], [55.19694, 25.04034]]]}, "properties": {"shop_id": "tt_me_aisem_city_centre", "brand": "Tips & Toes", "branch_name": "Me'aisem City Centre", "segment": "women", "source": "isochrone_6min", "area_km2": 0.98}}, {"type": "Feature", "geometry": {"type": "Polygon", "coordinates": [[[55.15679, 25.083418691193227], [55.161344174532786, 25.077166366406328], [55.16520501727665, 25.074813848621048], [55.16411983328164, 25.069908704631214], [55.16472375437349, 25.06714], [55.16778474992246, 25.062986943053176], [55.16520501727665, 25.05946615137895], [55.15982611635519, 25.060455755729112], [55.15679, 25.06352251306817], [55.155271941822406, 25.063797877864555], [55.15398499424112, 25.06458205045965], [55.15312508335918, 25.06575564768439], [55.15282312281325, 25.06714], [55.14946016671836, 25.069908704631214], [55.151179988482234, 25.072255899080698], [55.15375388364481, 25.073824244270885], [55.15679, 25.083418691193227]]]}, "properties": {"shop_id": "tt_meadows_mall", "brand": "Tips & Toes", "branch_name": "Meadows Mall", "segment": "women", "source": "isochrone_6min", "area_km2": 2.41}}, {"type": "Feature", "geometry": {"type": "Polygon", "coordinates": [[[55.30579, 25.020342460795487], [55.31034203452822, 25.01951636640633], [55.311397375375876, 25.0146058990807], [55.30945319449814, 25.010874352315607], [55.309755013152945, 25.00949], [55.30945319449814, 25.008105647684392], [55.30859368768794, 25.00693205045965], [55.30730734484274, 25.006147877864557], [55.30579, 25.002255026136343], [55.302755310314524, 25.002805755729113], [55.302986312312065, 25.00693205045965], [55.302126805501864, 25.008105647684392], [55.29785997369412, 25.00949], [55.29480041650558, 25.013643056946822], [55.297378936936184, 25.01716384862105], [55.301237965471785, 25.01951636640633], [55.30579, 25.020342460795487]]]}, "properties": {"shop_id": "tt_mira_town_centre", "brand": "Tips & Toes", "branch_name": "Mira Town Centre", "segment": "women", "source": "isochrone_6min", "area_km2": 1.99}}, {"type": "Feature", "geometry": {"type": "Polygon", "coordinates": [[[54.55356, 24.35656929332393], [54.5629921826909, 24.354848263346522], [54.56610844877044, 24.345470772931574], [54.56995533843011, 24.340189585420237], [54.57130618643791, 24.33396], [54.576331303375156, 24.325307798027453], [54.56610844877044, 24.32244922706843], [54.5629921826909, 24.31307173665348], [54.55356, 24.311350706676073], [54.544127817309096, 24.31307173665348], [54.5291602385019, 24.311577941521943], [54.53078869662484, 24.325307798027453], [54.535813813562086, 24.33396], [54.53078869662484, 24.34261220197255], [54.54101155122955, 24.345470772931574], [54.544127817309096, 24.354848263346522], [54.55356, 24.35656929332393]]]}, "properties": {"shop_id": "tt_mohammed_bin_zayed_city", "brand": "Tips & Toes", "branch_name": "Mohammed Bin Zayed City", "segment": "women", "source": "isochrone_6min", "area_km2": 16.19}}, {"type": "Feature", "geometry": {"type": "Polygon", "coordinates": [[[54.327, 24.471694973863656], [54.34021870565567, 24.493703568685127], [54.351424983203145, 24.486842058478057], [54.35891277847095, 24.47657308276157], [54.3516729589333, 24.46446], [54.35891277847095, 24.45234691723843], [54.344446416573675, 24.448472815372813], [54.331532127653375, 24.45443363359367], [54.327, 24.44818130880677], [54.3175580673888, 24.443571736653478], [54.314438580066955, 24.452949227068427], [54.31058771392922, 24.458230414579763], [54.315156979712015, 24.46446], [54.316058475952815, 24.468613056946822], [54.314438580066955, 24.47597077293157], [54.32246787234662, 24.474486366406328], [54.327, 24.471694973863656]]]}, "properties": {"shop_id": "tt_nation_towers", "brand": "Tips & Toes", "branch_name": "Nation Towers", "segment": "women", "source": "isochrone_6min", "area_km2": 15.22}}, {"type": "Feature", "geometry": {"type": "Polygon", "coordinates": [[[55.26434, 25.13225246079549], [55.26889619475305, 25.13142636640633], [55.26995250010464, 25.1265158990807], [55.27533962716563, 25.125553056946824], [55.2762459106502, 25.1214], [55.271673084777085, 25.118631295368786], [55.26995250010464, 25.1162841009193], [55.26889619475305, 25.111373633593672], [55.26434, 25.114165026136344], [55.261302536831295, 25.114715755729115], [55.25171187476455, 25.10988922706843], [55.24784055925154, 25.115170414579765], [55.25243408934979, 25.1214], [55.25700691522291, 25.124168704631217], [55.25872749989536, 25.1265158990807], [55.25978380524695, 25.13142636640633], [55.26434, 25.13225246079549]]]}, "properties": {"shop_id": "tt_park_point", "brand": "Tips & Toes", "branch_name": "Park Point", "segment": "women", "source": "isochrone_6min", "area_km2": 3.8}}, {"type": "Feature", "geometry": {"type": "Polygon", "coordinates": [[[55.25279, 25.24194748693183], [55.25431018944353, 25.241672122135444], [55.25279, 25.23833], [55.27572788732471, 25.24698220197255], [55.277617790331455, 25.23833], [55.26380018591586, 25.23417694305318], [55.265430247211775, 25.22681922706843], [55.259630852495896, 25.223290450390508], [55.25279, 25.222051308806773], [55.2482294316694, 25.228303633593672], [55.24998105617516, 25.23577205045965], [55.24177981408413, 25.23417694305318], [55.234913990961346, 25.23833], [55.2206769577454, 25.25044308276157], [55.23523410109475, 25.254317184627187], [55.24974962111293, 25.245014244270887], [55.25279, 25.24194748693183]]]}, "properties": {"shop_id": "tt_port_de_la_mer", "brand": "Tips & Toes", "branch_name": "Port De La Mer", "segment": "women", "source": "isochrone_6min", "area_km2": 7.81}}, {"type": "Feature", "geometry": {"type": "Polygon", "coordinates": [[[54.40058, 24.49927246079549], [54.405112990509316, 24.49844636640633], [54.41802973813596, 24.504407184627187], [54.41699541074856, 24.494649585420238], [54.41834791255884, 24.48842], [54.41699541074856, 24.482190414579765], [54.42500963339034, 24.466037941521943], [54.40360199367288, 24.481735755729115], [54.40058, 24.481185026136345], [54.39906900316356, 24.48507787786456], [54.39220412569474, 24.480746151378952], [54.39328426188953, 24.485651295368786], [54.38281208744115, 24.48842], [54.384164589251434, 24.494649585420238], [54.38801618854211, 24.499930772931574], [54.39378051423601, 24.503459549609495], [54.40058, 24.49927246079549]]]}, "properties": {"shop_id": "tt_reem_mall", "brand": "Tips & Toes", "branch_name": "Reem Mall", "segment": "women", "source": "isochrone_6min", "area_km2": 7.67}}, {"type": "Feature", "geometry": {"type": "Polygon", "coordinates": [[[54.44369, 24.54597], [54.44369, 24.54597], [54.45625956841488, 24.557480772931573], [54.45463862171691, 24.550123056946823], [54.45554070275033, 24.54597], [54.44369, 24.54597], [54.449276474851054, 24.5408541009193], [54.446713378402954, 24.539285755729114], [54.44369, 24.535117539204514], [54.44369, 24.54597], [54.431120431585114, 24.534459227068428], [54.44004045942769, 24.544585647684393], [54.44369, 24.54597], [54.44369, 24.54597], [54.44369, 24.54597], [54.44369, 24.54597], [54.44369, 24.54597]]]}, "properties": {"shop_id": "tt_saadiyat_island", "brand": "Tips & Toes", "branch_name": "Saadiyat Island", "segment": "women", "source": "isochrone_6min", "area_km2": 1.13}}, {"type": "Feature", "geometry": {"type": "Polygon", "coordinates": [[[54.7226, 24.40318869119323], [54.72939401386158, 24.401949549609494], [54.730969133800414, 24.39458384862105], [54.73353480027172, 24.391063056946823], [54.74035361378879, 24.38691], [54.73353480027172, 24.382756943053177], [54.74003569541753, 24.370922815372815], [54.72410978085813, 24.383567877864557], [54.7226, 24.376057539204513], [54.713163869636695, 24.36602173665348], [54.714230866199586, 24.37923615137895], [54.706197799592424, 24.380680414579764], [54.70484638621121, 24.38691], [54.706197799592424, 24.393139585420236], [54.71004629929938, 24.398420772931573], [54.71807065742561, 24.39693636640633], [54.7226, 24.40318869119323]]]}, "properties": {"shop_id": "tt_shamkha_mall", "brand": "Tips & Toes", "branch_name": "Shamkha Mall", "segment": "women", "source": "isochrone_6min", "area_km2": 7.21}}, {"type": "Feature", "geometry": {"type": "Polygon", "coordinates": [[[55.27895, 25.21331869119323], [55.29224714405071, 25.22628356868513], [55.28737397204295, 25.20471384862105], [55.28995644988848, 25.201193056946824], [55.28292109850407, 25.19704], [55.286287633258986, 25.194271295368786], [55.28456598136197, 25.1919241009193], [55.28046967360579, 25.193697877864558], [55.27895, 25.186187539204514], [55.27591065278841, 25.190355755729115], [55.27333401863803, 25.1919241009193], [55.25601989606568, 25.188387798027453], [55.271007802991875, 25.19704], [55.26244032516729, 25.203269585420237], [55.26631404193557, 25.208550772931574], [55.27591065278841, 25.203724244270887], [55.27895, 25.21331869119323]]]}, "properties": {"shop_id": "tt_the_dubai_mall", "brand": "Tips & Toes", "branch_name": "The Dubai Mall", "segment": "women", "source": "isochrone_6min", "area_km2": 5.24}}, {"type": "Feature", "geometry": {"type": "Polygon", "coordinates": [[[55.17062, 25.10913869119323], [55.175175131412836, 25.10288636640633], [55.17903678536044, 25.10053384862105], [55.18711559005289, 25.099089585420238], [55.18252313200831, 25.09286], [55.193530541740124, 25.084207798027453], [55.18324517804065, 25.08134922706843], [55.17745269711925, 25.077820450390508], [55.17062, 25.082007539204515], [55.16378730288075, 25.077820450390508], [55.17062, 25.09286], [55.17062, 25.09286], [55.17062, 25.09286], [55.16695431332158, 25.09424435231561], [55.16220321463956, 25.10053384862105], [55.16606486858716, 25.10288636640633], [55.17062, 25.10913869119323]]]}, "properties": {"shop_id": "tt_the_greens_souk", "brand": "Tips & Toes", "branch_name": "The Greens Souk", "segment": "women", "source": "isochrone_6min", "area_km2": 5.19}}, {"type": "Feature", "geometry": {"type": "Polygon", "coordinates": [[[55.19213, 25.08874929332393], [55.20161778615771, 25.08702826334652], [55.20475242287353, 25.077650772931573], [55.195794886723014, 25.06752435231561], [55.19609684480395, 25.06614], [55.195794886723014, 25.064755647684393], [55.19493498286079, 25.06358205045965], [55.195166091570464, 25.059455755729115], [55.19213, 25.049861308806772], [55.189093908429534, 25.059455755729115], [55.179507577126465, 25.05462922706843], [55.175638009746436, 25.059910414579765], [55.18816315519605, 25.06614], [55.18846511327698, 25.06752435231561], [55.174598857120095, 25.082127184627186], [55.187575862644294, 25.07616636640633], [55.19213, 25.08874929332393]]]}, "properties": {"shop_id": "tt_the_springs_souk", "brand": "Tips & Toes", "branch_name": "The Springs Souk", "segment": "women", "source": "isochrone_6min", "area_km2": 5.31}}, {"type": "Feature", "geometry": {"type": "Polygon", "coordinates": [[[55.44707, 25.029557434659143], [55.45465684652885, 25.028180610677214], [55.461088664448624, 25.02425974770175], [55.465386267785604, 25.018391761578037], [55.4668953853896, 25.01147], [55.465386267785604, 25.00454823842196], [55.461088664448624, 24.99868025229825], [55.45465684652885, 24.994759389322784], [55.44707, 24.993382565340855], [55.439483153471144, 24.994759389322784], [55.43305133555137, 24.99868025229825], [55.42875373221439, 25.00454823842196], [55.427244614610395, 25.01147], [55.42875373221439, 25.018391761578037], [55.43305133555137, 25.02425974770175], [55.439483153471144, 25.028180610677214], [55.44707, 25.029557434659143]]]}, "properties": {"shop_id": "tt_the_valley", "brand": "Tips & Toes", "branch_name": "The Valley", "segment": "women", "source": "circle_2km", "area_km2": 12.26}}, {"type": "Feature", "geometry": {"type": "Polygon", "coordinates": [[[55.30579, 25.020342460795487], [55.31034203452822, 25.01951636640633], [55.311397375375876, 25.0146058990807], [55.30945319449814, 25.010874352315607], [55.309755013152945, 25.00949], [55.30945319449814, 25.008105647684392], [55.30859368768794, 25.00693205045965], [55.30730734484274, 25.006147877864557], [55.30579, 25.002255026136343], [55.302755310314524, 25.002805755729113], [55.302986312312065, 25.00693205045965], [55.302126805501864, 25.008105647684392], [55.29785997369412, 25.00949], [55.29480041650558, 25.013643056946822], [55.297378936936184, 25.01716384862105], [55.301237965471785, 25.01951636640633], [55.30579, 25.020342460795487]]]}, "properties": {"shop_id": "tt_the_villa", "brand": "Tips & Toes", "branch_name": "The Villa", "segment": "women", "source": "isochrone_6min", "area_km2": 1.99}}, {"type": "Feature", "geometry": {"type": "Polygon", "coordinates": [[[54.60767, 24.50228869119323], [54.61069193577922, 24.492694244270886], [54.613253809229974, 24.4911258990807], [54.61496559834282, 24.488778704631216], [54.62543757217115, 24.48601], [54.624085096271344, 24.479780414579764], [54.613253809229974, 24.4808941009193], [54.60918096788961, 24.482667877864557], [54.60767, 24.48239251306817], [54.59822645068993, 24.46512173665348], [54.602086190770024, 24.4808941009193], [54.60402220082859, 24.484625647684393], [54.58990242782885, 24.48601], [54.591254903728654, 24.492239585420236], [54.59510642923256, 24.497520772931573], [54.604648064220775, 24.492694244270886], [54.60767, 24.50228869119323]]]}, "properties": {"shop_id": "tt_yas_mall", "brand": "Tips & Toes", "branch_name": "Yas Mall", "segment": "women", "source": "isochrone_6min", "area_km2": 4.33}}, {"type": "Feature", "geometry": {"type": "Polygon", "coordinates": [[[55.1351, 25.135417434659143], [55.14269340502329, 25.134040610677214], [55.14913078296617, 25.130119747701748], [55.153432101391815, 25.124251761578037], [55.154942523561466, 25.11733], [55.153432101391815, 25.11040823842196], [55.14913078296617, 25.10454025229825], [55.14269340502329, 25.100619389322784], [55.1351, 25.099242565340855], [55.127506594976715, 25.100619389322784], [55.121069217033835, 25.10454025229825], [55.11676789860819, 25.11040823842196], [55.115257476438536, 25.11733], [55.11676789860819, 25.124251761578037], [55.121069217033835, 25.130119747701748], [55.127506594976715, 25.134040610677214], [55.1351, 25.135417434659143]]]}, "properties": {"shop_id": "jz_palm_jumeirah", "brand": "Jazz Lounge Spa", "branch_name": "Palm Jumeirah", "segment": "men", "source": "circle_2km", "area_km2": 12.27}}, {"type": "Feature", "geometry": {"type": "Polygon", "coordinates": [[[55.25279, 25.256417434659145], [55.260390947217665, 25.255040610677217], [55.2668347191242, 25.25111974770175], [55.27114030985977, 25.24525176157804], [55.272652232265166, 25.23833], [55.27114030985977, 25.231408238421963], [55.2668347191242, 25.225540252298252], [55.260390947217665, 25.221619389322786], [55.25279, 25.220242565340858], [55.24518905278233, 25.221619389322786], [55.2387452808758, 25.225540252298252], [55.23443969014023, 25.231408238421963], [55.23292776773483, 25.23833], [55.23443969014023, 25.24525176157804], [55.2387452808758, 25.25111974770175], [55.24518905278233, 25.255040610677217], [55.25279, 25.256417434659145]]]}, "properties": {"shop_id": "jz_port_de_la_mer", "brand": "Jazz Lounge Spa", "branch_name": "Port De La Mer", "segment": "men", "source": "circle_2km", "area_km2": 12.28}}, {"type": "Feature", "geometry": {"type": "Polygon", "coordinates": [[[55.20173, 25.117577434659143], [55.20932229714602, 25.116200610677215], [55.2157587358759, 25.11227974770175], [55.22005942673948, 25.106411761578038], [55.221569628538646, 25.09949], [55.22005942673948, 25.09256823842196], [55.2157587358759, 25.08670025229825], [55.20932229714602, 25.082779389322784], [55.20173, 25.081402565340856], [55.19413770285398, 25.082779389322784], [55.187701264124094, 25.08670025229825], [55.18340057326051, 25.09256823842196], [55.18189037146135, 25.09949], [55.18340057326051, 25.106411761578038], [55.187701264124094, 25.11227974770175], [55.19413770285398, 25.116200610677215], [55.20173, 25.117577434659143]]]}, "properties": {"shop_id": "jz_al_barsha", "brand": "Jazz Lounge Spa", "branch_name": "Al Barsha", "segment": "men", "source": "circle_2km", "area_km2": 12.27}}, {"type": "Feature", "geometry": {"type": "Polygon", "coordinates": [[[55.42315, 25.239927434659144], [55.430749916482924, 25.238550610677216], [55.437192814574736, 25.23462974770175], [55.44149782144598, 25.22876176157804], [55.44300953882548, 25.22184], [55.44149782144598, 25.214918238421962], [55.437192814574736, 25.20905025229825], [55.430749916482924, 25.205129389322785], [55.42315, 25.203752565340857], [55.415550083517076, 25.205129389322785], [55.40910718542526, 25.20905025229825], [55.40480217855402, 25.214918238421962], [55.40329046117452, 25.22184], [55.40480217855402, 25.22876176157804], [55.40910718542526, 25.23462974770175], [55.415550083517076, 25.238550610677216], [55.42315, 25.239927434659144]]]}, "properties": {"shop_id": "jz_mirdif", "brand": "Jazz Lounge Spa", "branch_name": "Mirdif", "segment": "men", "source": "circle_2km", "area_km2": 12.28}}, {"type": "Feature", "geometry": {"type": "Polygon", "coordinates": [[[54.60767, 24.504097434659144], [54.615224839448054, 24.502720610677216], [54.62162952307494, 24.49879974770175], [54.625908995857046, 24.49293176157804], [54.627411746856836, 24.48601], [54.625908995857046, 24.479088238421962], [54.62162952307494, 24.47322025229825], [54.615224839448054, 24.469299389322785], [54.60767, 24.467922565340857], [54.600115160551944, 24.469299389322785], [54.59371047692506, 24.47322025229825], [54.58943100414295, 24.479088238421962], [54.58792825314316, 24.48601], [54.58943100414295, 24.49293176157804], [54.59371047692506, 24.49879974770175], [54.600115160551944, 24.502720610677216], [54.60767, 24.504097434659144]]]}, "properties": {"shop_id": "jz_yas_mall", "brand": "Jazz Lounge Spa", "branch_name": "Yas Mall", "segment": "men", "source": "circle_2km", "area_km2": 12.21}}, {"type": "Feature", "geometry": {"type": "Polygon", "coordinates": [[[54.327, 24.482547434659143], [54.334553546088955, 24.481170610677214], [54.34095713325894, 24.477249747701748], [54.34523587341197, 24.471381761578037], [54.346738367146635, 24.46446], [54.34523587341197, 24.45753823842196], [54.34095713325894, 24.45167025229825], [54.334553546088955, 24.447749389322784], [54.327, 24.446372565340855], [54.31944645391104, 24.447749389322784], [54.31304286674106, 24.45167025229825], [54.308764126588024, 24.45753823842196], [54.30726163285336, 24.46446], [54.308764126588024, 24.471381761578037], [54.31304286674106, 24.477249747701748], [54.31944645391104, 24.481170610677214], [54.327, 24.482547434659143]]]}, "properties": {"shop_id": "jz_nation_towers", "brand": "Jazz Lounge Spa", "branch_name": "Nation Towers", "segment": "men", "source": "circle_2km", "area_km2": 12.2}}, {"type": "Feature", "geometry": {"type": "Polygon", "coordinates": [[[54.71182, 24.455197434659144], [54.719371906808746, 24.453820610677216], [54.725774104264055, 24.44989974770175], [54.73005191583944, 24.44403176157804], [54.731554083500995, 24.43711], [54.73005191583944, 24.430188238421962], [54.725774104264055, 24.42432025229825], [54.719371906808746, 24.420399389322785], [54.71182, 24.419022565340857], [54.70426809319126, 24.420399389322785], [54.69786589573595, 24.42432025229825], [54.69358808416057, 24.430188238421962], [54.69208591649901, 24.43711], [54.69358808416057, 24.44403176157804], [54.69786589573595, 24.44989974770175], [54.70426809319126, 24.453820610677216], [54.71182, 24.455197434659144]]]}, "properties": {"shop_id": "jz_al_falah", "brand": "Jazz Lounge Spa", "branch_name": "Al Falah", "segment": "men", "source": "circle_2km", "area_km2": 12.2}}, {"type": "Feature", "geometry": {"type": "Polygon", "coordinates": [[[54.40058, 24.506507434659145], [54.4081349841822, 24.505130610677217], [54.41453979050876, 24.50120974770175], [54.418819345276184, 24.49534176157804], [54.42032212506538, 24.48842], [54.418819345276184, 24.481498238421963], [54.41453979050876, 24.475630252298252], [54.4081349841822, 24.471709389322786], [54.40058, 24.470332565340858], [54.3930250158178, 24.471709389322786], [54.386620209491234, 24.475630252298252], [54.38234065472381, 24.481498238421963], [54.38083787493461, 24.48842], [54.38234065472381, 24.49534176157804], [54.386620209491234, 24.50120974770175], [54.3930250158178, 24.505130610677217], [54.40058, 24.506507434659145]]]}, "properties": {"shop_id": "jz_al_reem_mall", "brand": "Jazz Lounge Spa", "branch_name": "Al Reem Mall", "segment": "men", "source": "circle_2km", "area_km2": 12.21}}, {"type": "Feature", "geometry": {"type": "Polygon", "coordinates": [[[55.77883, 24.292227434659143], [55.7863721891853, 24.290850610677214], [55.79276614843726, 24.28692974770175], [55.797038455421145, 24.281061761578037], [55.79853869012722, 24.27414], [55.797038455421145, 24.26721823842196], [55.79276614843726, 24.26135025229825], [55.7863721891853, 24.257429389322784], [55.77883, 24.256052565340855], [55.7712878108147, 24.257429389322784], [55.76489385156274, 24.26135025229825], [55.760621544578854, 24.26721823842196], [55.75912130987278, 24.27414], [55.760621544578854, 24.281061761578037], [55.76489385156274, 24.28692974770175], [55.7712878108147, 24.290850610677214], [55.77883, 24.292227434659143]]]}, "properties": {"shop_id": "jz_hili", "brand": "Jazz Lounge Spa", "branch_name": "Hili", "segment": "men", "source": "circle_2km", "area_km2": 12.18}}, {"type": "Feature", "geometry": {"type": "Polygon", "coordinates": [[[54.33797, 24.469467434659144], [54.345522761807935, 24.468090610677216], [54.35192568409657, 24.46416974770175], [54.3562039799901, 24.45830176157804], [54.35770631772157, 24.45138], [54.3562039799901, 24.444458238421962], [54.35192568409657, 24.43859025229825], [54.345522761807935, 24.434669389322785], [54.33797, 24.433292565340857], [54.33041723819206, 24.434669389322785], [54.324014315903426, 24.43859025229825], [54.3197360200099, 24.444458238421962], [54.318233682278425, 24.45138], [54.3197360200099, 24.45830176157804], [54.324014315903426, 24.46416974770175], [54.33041723819206, 24.468090610677216], [54.33797, 24.469467434659144]]]}, "properties": {"shop_id": "jz_al_bateen", "brand": "Jazz Lounge Spa", "branch_name": "Al Bateen", "segment": "men", "source": "circle_2km", "area_km2": 12.2}}]}