{"type": "FeatureCollection", "features": [{"type": "Feature", "geometry": {"type": "Point", "coordinates": [55.6599794, 24.2266835]}, "properties": {"shop_id": "bd_al_ain", "brand": "Bedashing", "branch_name": "Al Ain", "address": "Villa 14, Hamdan Bin Mohammad St., Al Markaniyah, Al Ain", "emirate": "Abu Dhabi", "geo_confidence": "verified", "segment": "women", "format": "salon", "geocode_shift_km": 5.197, "comp_1km": 0, "comp_2km": 0, "comp_3km": 1, "catchment_km2": 9.26, "catchment_source": "isochrone_6min", "cannibalisation": 0.0, "cross_segment_overlap": 0.0, "worst_overlap_with": "", "worst_overlap_brand": "", "worst_overlap_km": "", "n_group_shops_2km": 0}}, {"type": "Feature", "geometry": {"type": "Point", "coordinates": [55.2156092, 25.1131451]}, "properties": {"shop_id": "bd_al_barsha", "brand": "Bedashing", "branch_name": "Al Barsha", "address": "Shop 1,2-3 Umm Suqeim St, Al Barsha 2", "emirate": "Dubai", "geo_confidence": "verified", "segment": "women", "format": "salon", "geocode_shift_km": 1.198, "comp_1km": 0, "comp_2km": 35, "comp_3km": 70, "catchment_km2": 7.82, "catchment_source": "isochrone_6min", "cannibalisation": 0.5713, "cross_segment_overlap": 0.4864, "worst_overlap_with": "tt_al_barsha", "worst_overlap_brand": "Tips & Toes", "worst_overlap_km": 1.2, "n_group_shops_2km": 1}}, {"type": "Feature", "geometry": {"type": "Point", "coordinates": [53.7141144, 23.6280524]}, "properties": {"shop_id": "bd_al_dhafra", "brand": "Bedashing", "branch_name": "Al Dhafra", "address": "Al Dhafra Walk, Liwa-Tarif Rd, Zayed City", "emirate": "Abu Dhabi", "geo_confidence": "verified", "segment": "women", "format": "salon", "geocode_shift_km": 2.836, "comp_1km": 0, "comp_2km": 0, "comp_3km": 1, "catchment_km2": 10.54, "catchment_source": "isochrone_6min", "cannibalisation": 0.0, "cross_segment_overlap": 0.0, "worst_overlap_with": "", "worst_overlap_brand": "", "worst_overlap_km": "", "n_group_shops_2km": 0}}, {"type": "Feature", "geometry": {"type": "Point", "coordinates": [54.7396974, 24.4428939]}, "properties": {"shop_id": "bd_al_falah", "brand": "Bedashing", "branch_name": "Al Falah", "address": "Al Falah Village 4, 1D Branch", "emirate": "Abu Dhabi", "geo_confidence": "verified", "segment": "women", "format": "salon", "geocode_shift_km": 2.894, "comp_1km": 0, "comp_2km": 0, "comp_3km": 1, "catchment_km2": 8.41, "catchment_source": "isochrone_6min", "cannibalisation": 0.1219, "cross_segment_overlap": 0.1604, "worst_overlap_with": "tt_al_falah_1", "worst_overlap_brand": "Tips & Toes", "worst_overlap_km": 2.89, "n_group_shops_2km": 0}}, {"type": "Feature", "geometry": {"type": "Point", "coordinates": [55.4799114, 25.3192096]}, "properties": {"shop_id": "bd_al_jada", "brand": "Bedashing", "branch_name": "Al Jada", "address": "Shop M-18, Misk 2, Muwaileh Trading", "emirate": "Sharjah", "geo_confidence": "verified", "segment": "women", "format": "salon", "geocode_shift_km": 0.686, "comp_1km": 0, "comp_2km": 0, "comp_3km": 2, "catchment_km2": 0.91, "catchment_source": "isochrone_6min", "cannibalisation": 0.0, "cross_segment_overlap": 0.0, "worst_overlap_with": "", "worst_overlap_brand": "", "worst_overlap_km": "", "n_group_shops_2km": 0}}, {"type": "Feature", "geometry": {"type": "Point", "coordinates": [54.4929556, 24.4130516]}, "properties": {"shop_id": "bd_al_maqta", "brand": "Bedashing", "branch_name": "Al Maqta", "address": "Opposite Fairmont Bab Al Bahr, Villa 31, Al Khor St", "emirate": "Abu Dhabi", "geo_confidence": "verified", "segment": "women", "format": "salon", "geocode_shift_km": 1.253, "comp_1km": 1, "comp_2km": 2, "comp_3km": 3, "catchment_km2": 5.29, "catchment_source": "isochrone_6min", "cannibalisation": 0.0, "cross_segment_overlap": 0.0, "worst_overlap_with": "", "worst_overlap_brand": "", "worst_overlap_km": "", "n_group_shops_2km": 0}}, {"type": "Feature", "geometry": {"type": "Point", "coordinates": [56.3253503, 25.1202606]}, "properties": {"shop_id": "bd_al_taif_mall", "brand": "Bedashing", "branch_name": "Al Taif Mall", "address": "G/F 13, Al Taif Mall", "emirate": "Fujairah", "geo_confidence": "verified", "segment": "women", "format": "salon", "geocode_shift_km": 34.081, "comp_1km": 2, "comp_2km": 8, "comp_3km": 8, "catchment_km2": 11.5, "catchment_source": "isochrone_6min", "cannibalisation": 0.0, "cross_segment_overlap": 0.0, "worst_overlap_with": "", "worst_overlap_brand": "", "worst_overlap_km": "", "n_group_shops_2km": 0}}, {"type": "Feature", "geometry": {"type": "Point", "coordinates": [54.6332474, 24.2973631]}, "properties": {"shop_id": "bd_baniyas", "brand": "Bedashing", "branch_name": "Baniyas", "address": "Villa D, Baniyas East 8, opposite Lulu Hypermarket", "emirate": "Abu Dhabi", "geo_confidence": "verified", "segment": "women", "format": "salon", "geocode_shift_km": 1.027, "comp_1km": 1, "comp_2km": 1, "comp_3km": 2, "catchment_km2": 7.39, "catchment_source": "isochrone_6min", "cannibalisation": 0.0, "cross_segment_overlap": 0.0, "worst_overlap_with": "", "worst_overlap_brand": "", "worst_overlap_km": "", "n_group_shops_2km": 0}}, {"type": "Feature", "geometry": {"type": "Point", "coordinates": [55.2638147, 25.2019849]}, "properties": {"shop_id": "bd_city_walk", "brand": "Bedashing", "branch_name": "City Walk", "address": "18A-06 Al Raha Street, City Walk", "emirate": "Dubai", "geo_confidence": "verified", "segment": "women", "format": "salon", "geocode_shift_km": 0.714, "comp_1km": 1, "comp_2km": 29, "comp_3km": 51, "catchment_km2": 7.71, "catchment_source": "isochrone_6min", "cannibalisation": 0.1615, "cross_segment_overlap": 0.0, "worst_overlap_with": "tt_the_dubai_mall", "worst_overlap_brand": "Tips & Toes", "worst_overlap_km": 1.62, "n_group_shops_2km": 2}}, {"type": "Feature", "geometry": {"type": "Point", "coordinates": [54.3847796, 24.467954]}, "properties": {"shop_id": "bd_delma", "brand": "Bedashing", "branch_name": "Delma", "address": "Shop 1 & 2 Kim Tower, Delma St, Al Nahyan", "emirate": "Abu Dhabi", "geo_confidence": "verified", "segment": "women", "format": "salon", "geocode_shift_km": 0.441, "comp_1km": 27, "comp_2km": 97, "comp_3km": 222, "catchment_km2": 25.19, "catchment_source": "isochrone_6min", "cannibalisation": 0.2469, "cross_segment_overlap": 0.2145, "worst_overlap_with": "bd_khaleej_al_arabi", "worst_overlap_brand": "Bedashing", "worst_overlap_km": 3.3, "n_group_shops_2km": 0}}, {"type": "Feature", "geometry": {"type": "Point", "coordinates": [55.1659736, 25.039154]}, "properties": {"shop_id": "bd_jumeirah_park", "brand": "Bedashing", "branch_name": "Jumeirah Park", "address": "Shop 17 & 18, Jumeirah Park Club House", "emirate": "Dubai", "geo_confidence": "verified", "segment": "women", "format": "salon", "geocode_shift_km": 1.418, "comp_1km": 4, "comp_2km": 8, "comp_3km": 12, "catchment_km2": 3.72, "catchment_source": "isochrone_6min", "cannibalisation": 0.0, "cross_segment_overlap": 0.0, "worst_overlap_with": "", "worst_overlap_brand": "", "worst_overlap_km": "", "n_group_shops_2km": 2}}, {"type": "Feature", "geometry": {"type": "Point", "coordinates": [54.3537762, 24.4588702]}, "properties": {"shop_id": "bd_khaleej_al_arabi", "brand": "Bedashing", "branch_name": "Khaleej Al Arabi", "address": "Opposite Al Bateen Gardens, Khaleej Al Arabi St", "emirate": "Abu Dhabi", "geo_confidence": "verified", "segment": "women", "format": "salon", "geocode_shift_km": 1.804, "comp_1km": 8, "comp_2km": 82, "comp_3km": 180, "catchment_km2": 22.08, "catchment_source": "isochrone_6min", "cannibalisation": 0.5149, "cross_segment_overlap": 0.3204, "worst_overlap_with": "tt_khaleej_al_arabi", "worst_overlap_brand": "Tips & Toes", "worst_overlap_km": 1.8, "n_group_shops_2km": 2}}, {"type": "Feature", "geometry": {"type": "Point", "coordinates": [54.5989056, 24.4399805]}, "properties": {"shop_id": "bd_khalifa_city_a", "brand": "Bedashing", "branch_name": "Khalifa City A", "address": "Villa 1, Casablanca Residence, Khalifa City A", "emirate": "Abu Dhabi", "geo_confidence": "verified", "segment": "women", "format": "salon", "geocode_shift_km": 3.279, "comp_1km": 3, "comp_2km": 10, "comp_3km": 12, "catchment_km2": 14.66, "catchment_source": "isochrone_6min", "cannibalisation": 0.0143, "cross_segment_overlap": 0.0, "worst_overlap_with": "bd_zayed_international_airport", "worst_overlap_brand": "Bedashing", "worst_overlap_km": 4.51, "n_group_shops_2km": 0}}, {"type": "Feature", "geometry": {"type": "Point", "coordinates": [54.4647516, 24.432147]}, "properties": {"shop_id": "bd_ministries_complex", "brand": "Bedashing", "branch_name": "Ministries Complex", "address": "Shop 3, ICT Building, Khalifa Park", "emirate": "Abu Dhabi", "geo_confidence": "verified", "segment": "women", "format": "salon", "geocode_shift_km": 0.765, "comp_1km": 2, "comp_2km": 4, "comp_3km": 22, "catchment_km2": 3.31, "catchment_source": "isochrone_6min", "cannibalisation": 0.0, "cross_segment_overlap": 0.0, "worst_overlap_with": "", "worst_overlap_brand": "", "worst_overlap_km": "", "n_group_shops_2km": 0}}, {"type": "Feature", "geometry": {"type": "Point", "coordinates": [55.4329599, 25.2322986]}, "properties": {"shop_id": "bd_mirdif_35", "brand": "Bedashing", "branch_name": "Mirdif 35", "address": "Khansaheb Mirdif 35, Level 2, Unit L2-10", "emirate": "Dubai", "geo_confidence": "verified", "segment": "women", "format": "salon", "geocode_shift_km": 1.525, "comp_1km": 1, "comp_2km": 6, "comp_3km": 8, "catchment_km2": 3.35, "catchment_source": "isochrone_6min", "cannibalisation": 0.1921, "cross_segment_overlap": 0.9799, "worst_overlap_with": "tt_city_centre_mirdif", "worst_overlap_brand": "Tips & Toes", "worst_overlap_km": 3.09, "n_group_shops_2km": 1}}, {"type": "Feature", "geometry": {"type": "Point", "coordinates": [54.5403404, 24.3667831]}, "properties": {"shop_id": "bd_mohammed_bin_zayed_city", "brand": "Bedashing", "branch_name": "Mohammed Bin Zayed City", "address": "Villa 5, 69 Al Raqi St", "emirate": "Abu Dhabi", "geo_confidence": "verified", "segment": "women", "format": "salon", "geocode_shift_km": 3.888, "comp_1km": 3, "comp_2km": 4, "comp_3km": 9, "catchment_km2": 6.75, "catchment_source": "isochrone_6min", "cannibalisation": 0.0, "cross_segment_overlap": 0.0, "worst_overlap_with": "", "worst_overlap_brand": "", "worst_overlap_km": "", "n_group_shops_2km": 0}}, {"type": "Feature", "geometry": {"type": "Point", "coordinates": [55.3696875, 25.1595625]}, "properties": {"shop_id": "bd_nad_al_sheba", "brand": "Bedashing", "branch_name": "Nad Al Sheba", "address": "Nad Al Sheba Mall, Shop L2-048", "emirate": "Dubai", "geo_confidence": "verified", "segment": "women", "format": "salon", "geocode_shift_km": 0.048, "comp_1km": 1, "comp_2km": 1, "comp_3km": 6, "catchment_km2": 9.24, "catchment_source": "isochrone_6min", "cannibalisation": 0.0, "cross_segment_overlap": 0.0, "worst_overlap_with": "", "worst_overlap_brand": "", "worst_overlap_km": "", "n_group_shops_2km": 0}}, {"type": "Feature", "geometry": {"type": "Point", "coordinates": [54.6254375, 24.4995625]}, "properties": {"shop_id": "bd_noya_plaza", "brand": "Bedashing", "branch_name": "Noya Plaza", "address": "Noya Plaza, East Yas, G22, Yas Island", "emirate": "Abu Dhabi", "geo_confidence": "verified", "segment": "women", "format": "salon", "geocode_shift_km": 2.21, "comp_1km": 0, "comp_2km": 2, "comp_3km": 2, "catchment_km2": 1.91, "catchment_source": "isochrone_6min", "cannibalisation": 0.0295, "cross_segment_overlap": 0.5905, "worst_overlap_with": "tt_yas_mall", "worst_overlap_brand": "Tips & Toes", "worst_overlap_km": 2.35, "n_group_shops_2km": 0}}, {"type": "Feature", "geometry": {"type": "Point", "coordinates": [55.9198717, 25.751541]}, "properties": {"shop_id": "bd_ras_al_khaimah", "brand": "Bedashing", "branch_name": "Ras Al Khaimah", "address": "Villa 3, Sheikh Rashid Bin Saeed Al Maktoum Rd, Al Dhaith", "emirate": "Ras Al Khaimah", "geo_confidence": "verified", "segment": "women", "format": "salon", "geocode_shift_km": 3.094, "comp_1km": 0, "comp_2km": 0, "comp_3km": 1, "catchment_km2": 18.31, "catchment_source": "isochrone_6min", "cannibalisation": 0.0, "cross_segment_overlap": 0.0, "worst_overlap_with": "", "worst_overlap_brand": "", "worst_overlap_km": "", "n_group_shops_2km": 0}}, {"type": "Feature", "geometry": {"type": "Point", "coordinates": [54.6718965, 24.5243742]}, "properties": {"shop_id": "bd_shahama", "brand": "Bedashing", "branch_name": "Shahama", "address": "Al Shahama Rd", "emirate": "Abu Dhabi", "geo_confidence": "verified", "segment": "women", "format": "salon", "geocode_shift_km": 3.232, "comp_1km": 2, "comp_2km": 3, "comp_3km": 6, "catchment_km2": 4.67, "catchment_source": "isochrone_6min", "cannibalisation": 0.0, "cross_segment_overlap": 0.0, "worst_overlap_with": "", "worst_overlap_brand": "", "worst_overlap_km": "", "n_group_shops_2km": 0}}, {"type": "Feature", "geometry": {"type": "Point", "coordinates": [54.6238561, 24.3481854]}, "properties": {"shop_id": "bd_shakhbout_city", "brand": "Bedashing", "branch_name": "Shakhbout City", "address": "Shakhbout City 3", "emirate": "Abu Dhabi", "geo_confidence": "verified", "segment": "women", "format": "salon", "geocode_shift_km": 1.523, "comp_1km": 0, "comp_2km": 2, "comp_3km": 2, "catchment_km2": 20.21, "catchment_source": "isochrone_6min", "cannibalisation": 0.0, "cross_segment_overlap": 0.0, "worst_overlap_with": "", "worst_overlap_brand": "", "worst_overlap_km": "", "n_group_shops_2km": 0}}, {"type": "Feature", "geometry": {"type": "Point", "coordinates": [54.5868369, 24.4934924]}, "properties": {"shop_id": "bd_west_yas", "brand": "Bedashing", "branch_name": "West Yas", "address": "Westyas Plaza, Yas Island", "emirate": "Abu Dhabi", "geo_confidence": "verified", "segment": "women", "format": "salon", "geocode_shift_km": 0.385, "comp_1km": 0, "comp_2km": 0, "comp_3km": 2, "catchment_km2": 10.28, "catchment_source": "isochrone_6min", "cannibalisation": 0.1077, "cross_segment_overlap": 0.2191, "worst_overlap_with": "tt_yas_mall", "worst_overlap_brand": "Tips & Toes", "worst_overlap_km": 2.27, "n_group_shops_2km": 0}}, {"type": "Feature", "geometry": {"type": "Point", "coordinates": [55.4294728, 25.3306234]}, "properties": {"shop_id": "bd_zawaya_walk", "brand": "Bedashing", "branch_name": "Zawaya Walk", "address": "Shop 32 & 33, Zawaya Walk, University City Rd, Al Shahba", "emirate": "Sharjah", "geo_confidence": "verified", "segment": "women", "format": "salon", "geocode_shift_km": 2.837, "comp_1km": 4, "comp_2km": 6, "comp_3km": 11, "catchment_km2": 10.08, "catchment_source": "isochrone_6min", "cannibalisation": 0.0, "cross_segment_overlap": 0.0, "worst_overlap_with": "", "worst_overlap_brand": "", "worst_overlap_km": "", "n_group_shops_2km": 0}}, {"type": "Feature", "geometry": {"type": "Point", "coordinates": [54.6411421, 24.4527718]}, "properties": {"shop_id": "bd_zayed_international_airport", "brand": "Bedashing", "branch_name": "Zayed International Airport", "address": "Midfield Terminal", "emirate": "Abu Dhabi", "geo_confidence": "verified", "segment": "women", "format": "salon", "geocode_shift_km": 1.361, "comp_1km": 1, "comp_2km": 1, "comp_3km": 6, "catchment_km2": 4.05, "catchment_source": "isochrone_6min", "cannibalisation": 0.0517, "cross_segment_overlap": 0.0, "worst_overlap_with": "bd_khalifa_city_a", "worst_overlap_brand": "Bedashing", "worst_overlap_km": 4.51, "n_group_shops_2km": 0}}, {"type": "Feature", "geometry": {"type": "Point", "coordinates": [55.21607, 25.10238]}, "properties": {"shop_id": "tt_al_barsha", "brand": "Tips & Toes", "branch_name": "Al Barsha", "address": "Umm Suqeim Rd, Al Barsha", "emirate": "Dubai", "geo_confidence": "medium", "segment": "women", "format": "mid_salon", "geocode_shift_km": "", "comp_1km": 1, "comp_2km": 33, "comp_3km": 69, "catchment_km2": 6.76, "catchment_source": "isochrone_6min", "cannibalisation": 0.661, "cross_segment_overlap": 0.627, "worst_overlap_with": "bd_al_barsha", "worst_overlap_brand": "Bedashing", "worst_overlap_km": 1.2, "n_group_shops_2km": 2}}, {"type": "Feature", "geometry": {"type": "Point", "coordinates": [52.67199, 24.0755]}, "properties": {"shop_id": "tt_al_dhannah_mall", "brand": "Tips & Toes", "branch_name": "Al Dhannah Mall", "address": "Al Dhannah Mall, Al Ruwais", "emirate": "Abu Dhabi", "geo_confidence": "high", "segment": "women", "format": "mid_salon", "geocode_shift_km": "", "comp_1km": 0, "comp_2km": 0, "comp_3km": 0, "catchment_km2": 3.04, "catchment_source": "isochrone_6min", "cannibalisation": 0.0, "cross_segment_overlap": 0.0, "worst_overlap_with": "", "worst_overlap_brand": "", "worst_overlap_km": "", "n_group_shops_2km": 0}}, {"type": "Feature", "geometry": {"type": "Point", "coordinates": [54.71182, 24.43711]}, "properties": {"shop_id": "tt_al_falah_1", "brand": "Tips & Toes", "branch_name": "Al Falah 1", "address": "Block A Al Manarah St, Al Falah", "emirate": "Abu Dhabi", "geo_confidence": "medium", "segment": "women", "format": "mid_salon", "geocode_shift_km": "", "comp_1km": 0, "comp_2km": 0, "comp_3km": 1, "catchment_km2": 6.26, "catchment_source": "isochrone_6min", "cannibalisation": 0.1637, "cross_segment_overlap": 0.0, "worst_overlap_with": "bd_al_falah", "worst_overlap_brand": "Bedashing", "worst_overlap_km": 2.89, "n_group_shops_2km": 2}}, {"type": "Feature", "geometry": {"type": "Point", "coordinates": [54.71182, 24.43711]}, "properties": {"shop_id": "tt_al_falah_5", "brand": "Tips & Toes", "branch_name": "Al Falah 5", "address": "Al Falah Drive St, Village Center 5", "emirate": "Abu Dhabi", "geo_confidence": "low", "segment": "women", "format": "mid_salon", "geocode_shift_km": "", "comp_1km": 0, "comp_2km": 0, "comp_3km": 1, "catchment_km2": 6.26, "catchment_source": "isochrone_6min", "cannibalisation": 0.1637, "cross_segment_overlap": 0.0, "worst_overlap_with": "bd_al_falah", "worst_overlap_brand": "Bedashing", "worst_overlap_km": 2.89, "n_group_shops_2km": 2}}, {"type": "Feature", "geometry": {"type": "Point", "coordinates": [55.15223, 25.03047]}, "properties": {"shop_id": "tt_al_furjan_pavilion", "brand": "Tips & Toes", "branch_name": "Al Furjan Pavilion", "address": "Pavilion, Jebel Ali Village, Al Furjan", "emirate": "Dubai", "geo_confidence": "medium", "segment": "women", "format": "mid_salon", "geocode_shift_km": "", "comp_1km": 2, "comp_2km": 9, "comp_3km": 11, "catchment_km2": 9.63, "catchment_source": "isochrone_6min", "cannibalisation": 0.0, "cross_segment_overlap": 0.0, "worst_overlap_with": "", "worst_overlap_brand": "", "worst_overlap_km": "", "n_group_shops_2km": 2}}, {"type": "Feature", "geometry": {"type": "Point", "coordinates": [55.15223, 25.03047]}, "properties": {"shop_id": "tt_al_furjan_west", "brand": "Tips & Toes", "branch_name": "Al Furjan West", "address": "Al Furjan Pavilion West", "emirate": "Dubai", "geo_confidence": "low", "segment": "women", "format": "mid_salon", "geocode_shift_km": "", "comp_1km": 2, "comp_2km": 9, "comp_3km": 11, "catchment_km2": 9.63, "catchment_source": "isochrone_6min", "cannibalisation": 0.0, "cross_segment_overlap": 0.0, "worst_overlap_with": "", "worst_overlap_brand": "", "worst_overlap_km": "", "n_group_shops_2km": 2}}, {"type": "Feature", "geometry": {"type": "Point", "coordinates": [55.78169, 25.683]}, "properties": {"shop_id": "tt_al_hamra_mall", "brand": "Tips & Toes", "branch_name": "Al Hamra Mall", "address": "Sheikh Mohammed Bin Salem Rd, Al Hamra Village", "emirate": "Ras Al Khaimah", "geo_confidence": "high", "segment": "women", "format": "mid_salon", "geocode_shift_km": "", "comp_1km": 0, "comp_2km": 1, "comp_3km": 1, "catchment_km2": 7.47, "catchment_source": "isochrone_6min", "cannibalisation": 0.0, "cross_segment_overlap": 0.0, "worst_overlap_with": "", "worst_overlap_brand": "", "worst_overlap_km": "", "n_group_shops_2km": 0}}, {"type": "Feature", "geometry": {"type": "Point", "coordinates": [54.70437, 24.37831]}, "properties": {"shop_id": "tt_al_shamkhah_villa", "brand": "Tips & Toes", "branch_name": "Al Shamkhah Villa", "address": "367 Sector, Al Ayid St, Al Shamkhah", "emirate": "Abu Dhabi", "geo_confidence": "medium", "segment": "women", "format": "mid_salon", "geocode_shift_km": "", "comp_1km": 0, "comp_2km": 0, "comp_3km": 0, "catchment_km2": 8.18, "catchment_source": "isochrone_6min", "cannibalisation": 0.2153, "cross_segment_overlap": 0.0, "worst_overlap_with": "tt_shamkha_mall", "worst_overlap_brand": "Tips & Toes", "worst_overlap_km": 2.08, "n_group_shops_2km": 0}}, {"type": "Feature", "geometry": {"type": "Point", "coordinates": [55.27548, 25.05357]}, "properties": {"shop_id": "tt_arabian_ranches", "brand": "Tips & Toes", "branch_name": "Arabian Ranches", "address": "E311, Arabian Ranches", "emirate": "Dubai", "geo_confidence": "medium", "segment": "women", "format": "mid_salon", "geocode_shift_km": "", "comp_1km": 1, "comp_2km": 1, "comp_3km": 4, "catchment_km2": 1.82, "catchment_source": "isochrone_6min", "cannibalisation": 0.0, "cross_segment_overlap": 0.0, "worst_overlap_with": "", "worst_overlap_brand": "", "worst_overlap_km": "", "n_group_shops_2km": 0}}, {"type": "Feature", "geometry": {"type": "Point", "coordinates": [55.23549, 25.06033]}, "properties": {"shop_id": "tt_arjan", "brand": "Tips & Toes", "branch_name": "Arjan", "address": "Al Faris Building, Arjan, Al Barsha South", "emirate": "Dubai", "geo_confidence": "medium", "segment": "women", "format": "mid_salon", "geocode_shift_km": "", "comp_1km": 9, "comp_2km": 19, "comp_3km": 31, "catchment_km2": 2.56, "catchment_source": "isochrone_6min", "cannibalisation": 0.0, "cross_segment_overlap": 0.0, "worst_overlap_with": "", "worst_overlap_brand": "", "worst_overlap_km": "", "n_group_shops_2km": 0}}, {"type": "Feature", "geometry": {"type": "Point", "coordinates": [55.26719, 25.19008]}, "properties": {"shop_id": "tt_business_bay", "brand": "Tips & Toes", "branch_name": "Business Bay", "address": "Garden Side Bay Avenue, Business Bay", "emirate": "Dubai", "geo_confidence": "high", "segment": "women", "format": "mid_salon", "geocode_shift_km": "", "comp_1km": 6, "comp_2km": 13, "comp_3km": 38, "catchment_km2": 3.77, "catchment_source": "isochrone_6min", "cannibalisation": 0.2859, "cross_segment_overlap": 0.0, "worst_overlap_with": "tt_the_dubai_mall", "worst_overlap_brand": "Tips & Toes", "worst_overlap_km": 1.41, "n_group_shops_2km": 2}}, {"type": "Feature", "geometry": {"type": "Point", "coordinates": [55.40807, 25.21602]}, "properties": {"shop_id": "tt_city_centre_mirdif", "brand": "Tips & Toes", "branch_name": "City Centre Mirdif", "address": "City Centre Mirdif", "emirate": "Dubai", "geo_confidence": "high", "segment": "women", "format": "mid_salon", "geocode_shift_km": "", "comp_1km": 0, "comp_2km": 3, "comp_3km": 14, "catchment_km2": 6.26, "catchment_source": "isochrone_6min", "cannibalisation": 0.103, "cross_segment_overlap": 0.8528, "worst_overlap_with": "bd_mirdif_35", "worst_overlap_brand": "Bedashing", "worst_overlap_km": 3.09, "n_group_shops_2km": 1}}, {"type": "Feature", "geometry": {"type": "Point", "coordinates": [55.36038, 25.19798]}, "properties": {"shop_id": "tt_creek_beach", "brand": "Tips & Toes", "branch_name": "Creek Beach", "address": "Retail 10, Summer at Creek Beach Building 1", "emirate": "Dubai", "geo_confidence": "medium", "segment": "women", "format": "mid_salon", "geocode_shift_km": "", "comp_1km": 0, "comp_2km": 1, "comp_3km": 4, "catchment_km2": 2.58, "catchment_source": "isochrone_6min", "cannibalisation": 0.0, "cross_segment_overlap": 0.0, "worst_overlap_with": "", "worst_overlap_brand": "", "worst_overlap_km": "", "n_group_shops_2km": 0}}, {"type": "Feature", "geometry": {"type": "Point", "coordinates": [55.35259, 25.22187]}, "properties": {"shop_id": "tt_dubai_festival_city", "brand": "Tips & Toes", "branch_name": "Dubai Festival City", "address": "GF Dubai Festival City Mall", "emirate": "Dubai", "geo_confidence": "high", "segment": "women", "format": "mid_salon", "geocode_shift_km": "", "comp_1km": 0, "comp_2km": 1, "comp_3km": 11, "catchment_km2": 6.12, "catchment_source": "isochrone_6min", "cannibalisation": 0.0, "cross_segment_overlap": 0.0, "worst_overlap_with": "", "worst_overlap_brand": "", "worst_overlap_km": "", "n_group_shops_2km": 0}}, {"type": "Feature", "geometry": {"type": "Point", "coordinates": [55.14022, 25.07664]}, "properties": {"shop_id": "tt_dubai_marina_mall", "brand": "Tips & Toes", "branch_name": "Dubai Marina Mall", "address": "Dubai Marina Mall Galleria", "emirate": "Dubai", "geo_confidence": "high", "segment": "women", "format": "mid_salon", "geocode_shift_km": "", "comp_1km": 35, "comp_2km": 62, "comp_3km": 63, "catchment_km2": 12.26, "catchment_source": "circle_2km", "cannibalisation": 0.1461, "cross_segment_overlap": 0.0, "worst_overlap_with": "tt_marina_vista", "worst_overlap_brand": "Tips & Toes", "worst_overlap_km": 2.24, "n_group_shops_2km": 1}}, {"type": "Feature", "geometry": {"type": "Point", "coordinates": [55.37478, 25.11122]}, "properties": {"shop_id": "tt_dubai_silicon_central", "brand": "Tips & Toes", "branch_name": "Dubai Silicon Central", "address": "Dubai Silicon Central", "emirate": "Dubai", "geo_confidence": "high", "segment": "women", "format": "mid_salon", "geocode_shift_km": "", "comp_1km": 12, "comp_2km": 17, "comp_3km": 18, "catchment_km2": 12.27, "catchment_source": "circle_2km", "cannibalisation": 0.0, "cross_segment_overlap": 0.0, "worst_overlap_with": "", "worst_overlap_brand": "", "worst_overlap_km": "", "n_group_shops_2km": 0}}, {"type": "Feature", "geometry": {"type": "Point", "coordinates": [55.1351, 25.11733]}, "properties": {"shop_id": "tt_golden_mile_2", "brand": "Tips & Toes", "branch_name": "Golden Mile 2", "address": "Building 7 Ground Floor, Golden Mile, Palm Jumeirah", "emirate": "Dubai", "geo_confidence": "low", "segment": "women", "format": "mid_salon", "geocode_shift_km": "", "comp_1km": 1, "comp_2km": 3, "comp_3km": 7, "catchment_km2": 9.87, "catchment_source": "isochrone_6min", "cannibalisation": 0.0, "cross_segment_overlap": 0.0, "worst_overlap_with": "", "worst_overlap_brand": "", "worst_overlap_km": "", "n_group_shops_2km": 1}}, {"type": "Feature", "geometry": {"type": "Point", "coordinates": [55.77883, 24.27414]}, "properties": {"shop_id": "tt_hili_mall", "brand": "Tips & Toes", "branch_name": "Hili Mall", "address": "Baniyas St, Hili", "emirate": "Abu Dhabi", "geo_confidence": "high", "segment": "women", "format": "mid_salon", "geocode_shift_km": "", "comp_1km": 0, "comp_2km": 3, "comp_3km": 11, "catchment_km2": 7.29, "catchment_source": "isochrone_6min", "cannibalisation": 0.0, "cross_segment_overlap": 0.0, "worst_overlap_with": "", "worst_overlap_brand": "", "worst_overlap_km": "", "n_group_shops_2km": 1}}, {"type": "Feature", "geometry": {"type": "Point", "coordinates": [55.73553, 24.25096]}, "properties": {"shop_id": "tt_jimi_district", "brand": "Tips & Toes", "branch_name": "Jimi District", "address": "Al Mahir St, Al Jimi", "emirate": "Abu Dhabi", "geo_confidence": "medium", "segment": "women", "format": "mid_salon", "geocode_shift_km": "", "comp_1km": 1, "comp_2km": 3, "comp_3km": 10, "catchment_km2": 15.29, "catchment_source": "isochrone_6min", "cannibalisation": 0.0, "cross_segment_overlap": 0.0, "worst_overlap_with": "", "worst_overlap_brand": "", "worst_overlap_km": "", "n_group_shops_2km": 0}}, {"type": "Feature", "geometry": {"type": "Point", "coordinates": [54.33797, 24.45138]}, "properties": {"shop_id": "tt_khaleej_al_arabi", "brand": "Tips & Toes", "branch_name": "Khaleej Al Arabi", "address": "Villa 816, Al Khaleej Al Arabi St, Al Bateen", "emirate": "Abu Dhabi", "geo_confidence": "medium", "segment": "women", "format": "mid_salon", "geocode_shift_km": "", "comp_1km": 0, "comp_2km": 17, "comp_3km": 70, "catchment_km2": 14.03, "catchment_source": "isochrone_6min", "cannibalisation": 0.8105, "cross_segment_overlap": 0.368, "worst_overlap_with": "bd_khaleej_al_arabi", "worst_overlap_brand": "Bedashing", "worst_overlap_km": 1.8, "n_group_shops_2km": 4}}, {"type": "Feature", "geometry": {"type": "Point", "coordinates": [54.57495, 24.42013]}, "properties": {"shop_id": "tt_khalifa_city", "brand": "Tips & Toes", "branch_name": "Khalifa City", "address": "Street 12, Southwest 11, Khalifa City A", "emirate": "Abu Dhabi", "geo_confidence": "medium", "segment": "women", "format": "mid_salon", "geocode_shift_km": "", "comp_1km": 0, "comp_2km": 2, "comp_3km": 5, "catchment_km2": 8.7, "catchment_source": "isochrone_6min", "cannibalisation": 0.0, "cross_segment_overlap": 0.0, "worst_overlap_with": "", "worst_overlap_brand": "", "worst_overlap_km": "", "n_group_shops_2km": 0}}, {"type": "Feature", "geometry": {"type": "Point", "coordinates": [55.68543, 24.13501]}, "properties": {"shop_id": "tt_makani", "brand": "Tips & Toes", "branch_name": "Makani", "address": "Makani Zakher Shopping Center, Nimah", "emirate": "Abu Dhabi", "geo_confidence": "medium", "segment": "women", "format": "mid_salon", "geocode_shift_km": "", "comp_1km": 0, "comp_2km": 0, "comp_3km": 0, "catchment_km2": 12.84, "catchment_source": "isochrone_6min", "cannibalisation": 0.0, "cross_segment_overlap": 0.0, "worst_overlap_with": "", "worst_overlap_brand": "", "worst_overlap_km": "", "n_group_shops_2km": 0}}, {"type": "Feature", "geometry": {"type": "Point", "coordinates": [54.32143, 24.47604]}, "properties": {"shop_id": "tt_marina_mall_auh", "brand": "Tips & Toes", "branch_name": "Marina Mall AUH", "address": "W Corniche Rd, Al Kasir, Al Marina", "emirate": "Abu Dhabi", "geo_confidence": "high", "segment": "women", "format": "mid_salon", "geocode_shift_km": "", "comp_1km": 0, "comp_2km": 6, "comp_3km": 57, "catchment_km2": 16.38, "catchment_source": "isochrone_6min", "cannibalisation": 0.2366, "cross_segment_overlap": 0.3169, "worst_overlap_with": "tt_nation_towers", "worst_overlap_brand": "Tips & Toes", "worst_overlap_km": 1.41, "n_group_shops_2km": 2}}, {"type": "Feature", "geometry": {"type": "Point", "coordinates": [55.13985, 25.0968]}, "properties": {"shop_id": "tt_marina_vista", "brand": "Tips & Toes", "branch_name": "Marina Vista", "address": "Unit R01, Marina Vista Tower 2, Emaar Beachfront", "emirate": "Dubai", "geo_confidence": "medium", "segment": "women", "format": "mid_salon", "geocode_shift_km": "", "comp_1km": 0, "comp_2km": 28, "comp_3km": 50, "catchment_km2": 2.96, "catchment_source": "isochrone_6min", "cannibalisation": 0.6054, "cross_segment_overlap": 0.063, "worst_overlap_with": "tt_dubai_marina_mall", "worst_overlap_brand": "Tips & Toes", "worst_overlap_km": 2.24, "n_group_shops_2km": 0}}, {"type": "Feature", "geometry": {"type": "Point", "coordinates": [55.19694, 25.04034]}, "properties": {"shop_id": "tt_me_aisem_city_centre", "brand": "Tips & Toes", "branch_name": "Me'aisem City Centre", "address": "City Centre Meaisem, Dubai Production City", "emirate": "Dubai", "geo_confidence": "high", "segment": "women", "format": "mid_salon", "geocode_shift_km": "", "comp_1km": 2, "comp_2km": 7, "comp_3km": 18, "catchment_km2": 0.98, "catchment_source": "isochrone_6min", "cannibalisation": 0.0, "cross_segment_overlap": 0.0, "worst_overlap_with": "", "worst_overlap_brand": "", "worst_overlap_km": "", "n_group_shops_2km": 0}}, {"type": "Feature", "geometry": {"type": "Point", "coordinates": [55.15679, 25.06714]}, "properties": {"shop_id": "tt_meadows_mall", "brand": "Tips & Toes", "branch_name": "Meadows Mall", "address": "Meadows 4, Emirates Hills", "emirate": "Dubai", "geo_confidence": "medium", "segment": "women", "format": "mid_salon", "geocode_shift_km": "", "comp_1km": 0, "comp_2km": 26, "comp_3km": 67, "catchment_km2": 2.41, "catchment_source": "isochrone_6min", "cannibalisation": 0.4274, "cross_segment_overlap": 0.0, "worst_overlap_with": "tt_dubai_marina_mall", "worst_overlap_brand": "Tips & Toes", "worst_overlap_km": 1.98, "n_group_shops_2km": 1}}, {"type": "Feature", "geometry": {"type": "Point", "coordinates": [55.30579, 25.00949]}, "properties": {"shop_id": "tt_mira_town_centre", "brand": "Tips & Toes", "branch_name": "Mira Town Centre", "address": "Mira Town Centre", "emirate": "Dubai", "geo_confidence": "medium", "segment": "women", "format": "mid_salon", "geocode_shift_km": "", "comp_1km": 0, "comp_2km": 0, "comp_3km": 0, "catchment_km2": 1.99, "catchment_source": "isochrone_6min", "cannibalisation": 0.0, "cross_segment_overlap": 0.0, "worst_overlap_with": "", "worst_overlap_brand": "", "worst_overlap_km": "", "n_group_shops_2km": 1}}, {"type": "Feature", "geometry": {"type": "Point", "coordinates": [54.55356, 24.33396]}, "properties": {"shop_id": "tt_mohammed_bin_zayed_city", "brand": "Tips & Toes", "branch_name": "Mohammed Bin Zayed City", "address": "Villa 143, Mohamed Bin Zayed City Z6", "emirate": "Abu Dhabi", "geo_confidence": "medium", "segment": "women", "format": "mid_salon", "geocode_shift_km": "", "comp_1km": 0, "comp_2km": 6, "comp_3km": 29, "catchment_km2": 16.19, "catchment_source": "isochrone_6min", "cannibalisation": 0.0, "cross_segment_overlap": 0.0, "worst_overlap_with": "", "worst_overlap_brand": "", "worst_overlap_km": "", "n_group_shops_2km": 0}}, {"type": "Feature", "geometry": {"type": "Point", "coordinates": [54.327, 24.46446]}, "properties": {"shop_id": "tt_nation_towers", "brand": "Tips & Toes", "branch_name": "Nation Towers", "address": "Nation Towers, 1st Street Al Bateen", "emirate": "Abu Dhabi", "geo_confidence": "high", "segment": "women", "format": "mid_salon", "geocode_shift_km": "", "comp_1km": 0, "comp_2km": 19, "comp_3km": 77, "catchment_km2": 15.22, "catchment_source": "isochrone_6min", "cannibalisation": 0.6297, "cross_segment_overlap": 0.5875, "worst_overlap_with": "bd_khaleej_al_arabi", "worst_overlap_brand": "Bedashing", "worst_overlap_km": 2.78, "n_group_shops_2km": 4}}, {"type": "Feature", "geometry": {"type": "Point", "coordinates": [55.26434, 25.1214]}, "properties": {"shop_id": "tt_park_point", "brand": "Tips & Toes", "branch_name": "Park Point", "address": "Dubai Hills Estate, Park Point", "emirate": "Dubai", "geo_confidence": "medium", "segment": "women", "format": "mid_salon", "geocode_shift_km": "", "comp_1km": 0, "comp_2km": 0, "comp_3km": 1, "catchment_km2": 3.8, "catchment_source": "isochrone_6min", "cannibalisation": 0.0, "cross_segment_overlap": 0.0, "worst_overlap_with": "", "worst_overlap_brand": "", "worst_overlap_km": "", "n_group_shops_2km": 0}}, {"type": "Feature", "geometry": {"type": "Point", "coordinates": [55.25279, 25.23833]}, "properties": {"shop_id": "tt_port_de_la_mer", "brand": "Tips & Toes", "branch_name": "Port De La Mer", "address": "La Cote B2, Port De La Mer, Jumeirah 1", "emirate": "Dubai", "geo_confidence": "high", "segment": "women", "format": "mid_salon", "geocode_shift_km": "", "comp_1km": 0, "comp_2km": 5, "comp_3km": 49, "catchment_km2": 7.81, "catchment_source": "isochrone_6min", "cannibalisation": 0.0, "cross_segment_overlap": 0.7609, "worst_overlap_with": "", "worst_overlap_brand": "", "worst_overlap_km": "", "n_group_shops_2km": 1}}, {"type": "Feature", "geometry": {"type": "Point", "coordinates": [54.40058, 24.48842]}, "properties": {"shop_id": "tt_reem_mall", "brand": "Tips & Toes", "branch_name": "Reem Mall", "address": "Spinneys entrance, Basement level 1, Reem Mall", "emirate": "Abu Dhabi", "geo_confidence": "high", "segment": "women", "format": "mid_salon", "geocode_shift_km": "", "comp_1km": 0, "comp_2km": 39, "comp_3km": 177, "catchment_km2": 7.67, "catchment_source": "isochrone_6min", "cannibalisation": 0.337, "cross_segment_overlap": 0.9025, "worst_overlap_with": "bd_delma", "worst_overlap_brand": "Bedashing", "worst_overlap_km": 2.78, "n_group_shops_2km": 1}}, {"type": "Feature", "geometry": {"type": "Point", "coordinates": [54.44369, 24.54597]}, "properties": {"shop_id": "tt_saadiyat_island", "brand": "Tips & Toes", "branch_name": "Saadiyat Island", "address": "Saadiyat Island", "emirate": "Abu Dhabi", "geo_confidence": "low", "segment": "women", "format": "mid_salon", "geocode_shift_km": "", "comp_1km": 1, "comp_2km": 2, "comp_3km": 3, "catchment_km2": 1.13, "catchment_source": "isochrone_6min", "cannibalisation": 0.0, "cross_segment_overlap": 0.0, "worst_overlap_with": "", "worst_overlap_brand": "", "worst_overlap_km": "", "n_group_shops_2km": 0}}, {"type": "Feature", "geometry": {"type": "Point", "coordinates": [54.7226, 24.38691]}, "properties": {"shop_id": "tt_shamkha_mall", "brand": "Tips & Toes", "branch_name": "Shamkha Mall", "address": "Makani Mall, Al Shamkhah", "emirate": "Abu Dhabi", "geo_confidence": "high", "segment": "women", "format": "mid_salon", "geocode_shift_km": "", "comp_1km": 0, "comp_2km": 0, "comp_3km": 0, "catchment_km2": 7.21, "catchment_source": "isochrone_6min", "cannibalisation": 0.2443, "cross_segment_overlap": 0.0, "worst_overlap_with": "tt_al_shamkhah_villa", "worst_overlap_brand": "Tips & Toes", "worst_overlap_km": 2.08, "n_group_shops_2km": 0}}, {"type": "Feature", "geometry": {"type": "Point", "coordinates": [55.27895, 25.19704]}, "properties": {"shop_id": "tt_the_dubai_mall", "brand": "Tips & Toes", "branch_name": "The Dubai Mall", "address": "The Dubai Mall Level 1, Fashion Avenue", "emirate": "Dubai", "geo_confidence": "high", "segment": "women", "format": "mid_salon", "geocode_shift_km": "", "comp_1km": 4, "comp_2km": 20, "comp_3km": 38, "catchment_km2": 5.24, "catchment_source": "isochrone_6min", "cannibalisation": 0.2374, "cross_segment_overlap": 0.0, "worst_overlap_with": "bd_city_walk", "worst_overlap_brand": "Bedashing", "worst_overlap_km": 1.62, "n_group_shops_2km": 2}}, {"type": "Feature", "geometry": {"type": "Point", "coordinates": [55.17062, 25.09286]}, "properties": {"shop_id": "tt_the_greens_souk", "brand": "Tips & Toes", "branch_name": "The Greens Souk", "address": "Community Centre Shop 8, Street 7, The Greens", "emirate": "Dubai", "geo_confidence": "medium", "segment": "women", "format": "mid_salon", "geocode_shift_km": "", "comp_1km": 11, "comp_2km": 17, "comp_3km": 48, "catchment_km2": 5.19, "catchment_source": "isochrone_6min", "cannibalisation": 0.0223, "cross_segment_overlap": 0.0614, "worst_overlap_with": "tt_the_springs_souk", "worst_overlap_brand": "Tips & Toes", "worst_overlap_km": 3.68, "n_group_shops_2km": 0}}, {"type": "Feature", "geometry": {"type": "Point", "coordinates": [55.19213, 25.06614]}, "properties": {"shop_id": "tt_the_springs_souk", "brand": "Tips & Toes", "branch_name": "The Springs Souk", "address": "Springs Souq", "emirate": "Dubai", "geo_confidence": "high", "segment": "women", "format": "mid_salon", "geocode_shift_km": "", "comp_1km": 1, "comp_2km": 5, "comp_3km": 23, "catchment_km2": 5.31, "catchment_source": "isochrone_6min", "cannibalisation": 0.0218, "cross_segment_overlap": 0.1276, "worst_overlap_with": "tt_the_greens_souk", "worst_overlap_brand": "Tips & Toes", "worst_overlap_km": 3.68, "n_group_shops_2km": 0}}, {"type": "Feature", "geometry": {"type": "Point", "coordinates": [55.44707, 25.01147]}, "properties": {"shop_id": "tt_the_valley", "brand": "Tips & Toes", "branch_name": "The Valley", "address": "Emaar Valley Pavilion Mall", "emirate": "Dubai", "geo_confidence": "medium", "segment": "women", "format": "mid_salon", "geocode_shift_km": "", "comp_1km": 0, "comp_2km": 0, "comp_3km": 0, "catchment_km2": 12.26, "catchment_source": "circle_2km", "cannibalisation": 0.0, "cross_segment_overlap": 0.0, "worst_overlap_with": "", "worst_overlap_brand": "", "worst_overlap_km": "", "n_group_shops_2km": 0}}, {"type": "Feature", "geometry": {"type": "Point", "coordinates": [55.30579, 25.00949]}, "properties": {"shop_id": "tt_the_villa", "brand": "Tips & Toes", "branch_name": "The Villa", "address": "Next to Spinneys, The Villa", "emirate": "Dubai", "geo_confidence": "low", "segment": "women", "format": "mid_salon", "geocode_shift_km": "", "comp_1km": 0, "comp_2km": 0, "comp_3km": 0, "catchment_km2": 1.99, "catchment_source": "isochrone_6min", "cannibalisation": 0.0, "cross_segment_overlap": 0.0, "worst_overlap_with": "", "worst_overlap_brand": "", "worst_overlap_km": "", "n_group_shops_2km": 1}}, {"type": "Feature", "geometry": {"type": "Point", "coordinates": [54.60767, 24.48601]}, "properties": {"shop_id": "tt_yas_mall", "brand": "Tips & Toes", "branch_name": "Yas Mall", "address": "Yas Mall, Lower ground floor, Yas Island", "emirate": "Abu Dhabi", "geo_confidence": "high", "segment": "women", "format": "mid_salon", "geocode_shift_km": "", "comp_1km": 2, "comp_2km": 2, "comp_3km": 3, "catchment_km2": 4.33, "catchment_source": "isochrone_6min", "cannibalisation": 0.2555, "cross_segment_overlap": 0.9927, "worst_overlap_with": "bd_west_yas", "worst_overlap_brand": "Bedashing", "worst_overlap_km": 2.27, "n_group_shops_2km": 1}}, {"type": "Feature", "geometry": {"type": "Point", "coordinates": [55.1351, 25.11733]}, "properties": {"shop_id": "jz_palm_jumeirah", "brand": "Jazz Lounge Spa", "branch_name": "Palm Jumeirah", "address": "Palm Jumeirah", "emirate": "Dubai", "geo_confidence": "medium", "segment": "men", "format": "mens_spa", "geocode_shift_km": "", "comp_1km": 1, "comp_2km": 3, "comp_3km": 7, "catchment_km2": 12.27, "catchment_source": "circle_2km", "cannibalisation": 0.0, "cross_segment_overlap": 0.0152, "worst_overlap_with": "", "worst_overlap_brand": "", "worst_overlap_km": "", "n_group_shops_2km": 1}}, {"type": "Feature", "geometry": {"type": "Point", "coordinates": [55.25279, 25.23833]}, "properties": {"shop_id": "jz_port_de_la_mer", "brand": "Jazz Lounge Spa", "branch_name": "Port De La Mer", "address": "Port De La Mer", "emirate": "Dubai", "geo_confidence": "high", "segment": "men", "format": "mens_spa", "geocode_shift_km": "", "comp_1km": 0, "comp_2km": 5, "comp_3km": 49, "catchment_km2": 12.28, "catchment_source": "circle_2km", "cannibalisation": 0.0, "cross_segment_overlap": 0.4839, "worst_overlap_with": "", "worst_overlap_brand": "", "worst_overlap_km": "", "n_group_shops_2km": 1}}, {"type": "Feature", "geometry": {"type": "Point", "coordinates": [55.20173, 25.09949]}, "properties": {"shop_id": "jz_al_barsha", "brand": "Jazz Lounge Spa", "branch_name": "Al Barsha", "address": "Al Barsha", "emirate": "Dubai", "geo_confidence": "medium", "segment": "men", "format": "mens_spa", "geocode_shift_km": "", "comp_1km": 2, "comp_2km": 66, "comp_3km": 81, "catchment_km2": 12.27, "catchment_source": "circle_2km", "cannibalisation": 0.0, "cross_segment_overlap": 0.3454, "worst_overlap_with": "", "worst_overlap_brand": "", "worst_overlap_km": "", "n_group_shops_2km": 1}}, {"type": "Feature", "geometry": {"type": "Point", "coordinates": [55.42315, 25.22184]}, "properties": {"shop_id": "jz_mirdif", "brand": "Jazz Lounge Spa", "branch_name": "Mirdif", "address": "Mirdif", "emirate": "Dubai", "geo_confidence": "medium", "segment": "men", "format": "mens_spa", "geocode_shift_km": "", "comp_1km": 1, "comp_2km": 3, "comp_3km": 9, "catchment_km2": 12.28, "catchment_source": "circle_2km", "cannibalisation": 0.0, "cross_segment_overlap": 0.4346, "worst_overlap_with": "", "worst_overlap_brand": "", "worst_overlap_km": "", "n_group_shops_2km": 2}}, {"type": "Feature", "geometry": {"type": "Point", "coordinates": [54.60767, 24.48601]}, "properties": {"shop_id": "jz_yas_mall", "brand": "Jazz Lounge Spa", "branch_name": "Yas Mall", "address": "Yas Mall, Yas Island", "emirate": "Abu Dhabi", "geo_confidence": "high", "segment": "men", "format": "mens_spa", "geocode_shift_km": "", "comp_1km": 2, "comp_2km": 2, "comp_3km": 3, "catchment_km2": 12.21, "catchment_source": "circle_2km", "cannibalisation": 0.0, "cross_segment_overlap": 0.3524, "worst_overlap_with": "", "worst_overlap_brand": "", "worst_overlap_km": "", "n_group_shops_2km": 1}}, {"type": "Feature", "geometry": {"type": "Point", "coordinates": [54.327, 24.46446]}, "properties": {"shop_id": "jz_nation_towers", "brand": "Jazz Lounge Spa", "branch_name": "Nation Towers", "address": "Nation Towers", "emirate": "Abu Dhabi", "geo_confidence": "high", "segment": "men", "format": "mens_spa", "geocode_shift_km": "", "comp_1km": 0, "comp_2km": 19, "comp_3km": 77, "catchment_km2": 12.2, "catchment_source": "circle_2km", "cannibalisation": 0.4337, "cross_segment_overlap": 0.7328, "worst_overlap_with": "jz_al_bateen", "worst_overlap_brand": "Jazz Lounge Spa", "worst_overlap_km": 1.83, "n_group_shops_2km": 4}}, {"type": "Feature", "geometry": {"type": "Point", "coordinates": [54.71182, 24.43711]}, "properties": {"shop_id": "jz_al_falah", "brand": "Jazz Lounge Spa", "branch_name": "Al Falah", "address": "Al Falah", "emirate": "Abu Dhabi", "geo_confidence": "medium", "segment": "men", "format": "mens_spa", "geocode_shift_km": "", "comp_1km": 0, "comp_2km": 0, "comp_3km": 1, "catchment_km2": 12.2, "catchment_source": "circle_2km", "cannibalisation": 0.0, "cross_segment_overlap": 0.1105, "worst_overlap_with": "", "worst_overlap_brand": "", "worst_overlap_km": "", "n_group_shops_2km": 2}}, {"type": "Feature", "geometry": {"type": "Point", "coordinates": [54.40058, 24.48842]}, "properties": {"shop_id": "jz_al_reem_mall", "brand": "Jazz Lounge Spa", "branch_name": "Al Reem Mall", "address": "Reem Mall", "emirate": "Abu Dhabi", "geo_confidence": "high", "segment": "men", "format": "mens_spa", "geocode_shift_km": "", "comp_1km": 0, "comp_2km": 39, "comp_3km": 177, "catchment_km2": 12.21, "catchment_source": "circle_2km", "cannibalisation": 0.0, "cross_segment_overlap": 0.5675, "worst_overlap_with": "", "worst_overlap_brand": "", "worst_overlap_km": "", "n_group_shops_2km": 1}}, {"type": "Feature", "geometry": {"type": "Point", "coordinates": [55.77883, 24.27414]}, "properties": {"shop_id": "jz_hili", "brand": "Jazz Lounge Spa", "branch_name": "Hili", "address": "Four Points by Sheraton, Hili, Al Ain", "emirate": "Abu Dhabi", "geo_confidence": "low", "segment": "men", "format": "mens_spa", "geocode_shift_km": "", "comp_1km": 0, "comp_2km": 3, "comp_3km": 11, "catchment_km2": 12.18, "catchment_source": "circle_2km", "cannibalisation": 0.0, "cross_segment_overlap": 0.0, "worst_overlap_with": "", "worst_overlap_brand": "", "worst_overlap_km": "", "n_group_shops_2km": 1}}, {"type": "Feature", "geometry": {"type": "Point", "coordinates": [54.33797, 24.45138]}, "properties": {"shop_id": "jz_al_bateen", "brand": "Jazz Lounge Spa", "branch_name": "Al Bateen", "address": "Al Bateen", "emirate": "Abu Dhabi", "geo_confidence": "medium", "segment": "men", "format": "mens_spa", "geocode_shift_km": "", "comp_1km": 0, "comp_2km": 17, "comp_3km": 70, "catchment_km2": 12.2, "catchment_source": "circle_2km", "cannibalisation": 0.4338, "cross_segment_overlap": 0.5798, "worst_overlap_with": "jz_nation_towers", "worst_overlap_brand": "Jazz Lounge Spa", "worst_overlap_km": 1.83, "n_group_shops_2km": 4}}]}